{"type":"FeatureCollection","features":[{"type":"Feature","properties":{"nr":"1","siedziba":"VI Liceum Ogólnokształcące","ulica":"WĄSKA","nrBud":"7"},"geometry":{"type":"Point","coordinates":[19.94761,50.05043]}},{"type":"Feature","properties":{"nr":"2","siedziba":"Zespół Szkół Mechanicznych Nr 4","ulica":"PODBRZEZIE","nrBud":"10"},"geometry":{"type":"Point","coordinates":[19.94467,50.05356]}},{"type":"Feature","properties":{"nr":"3","siedziba":"Zespół Szkolno-Przedszkolny Nr 3","ulica":"MIODOWA","nrBud":"36"},"geometry":{"type":"Point","coordinates":[19.94722,50.05348]}},{"type":"Feature","properties":{"nr":"4","siedziba":"Szkoła Podstawowa z Oddziałami Integracyjnymi Nr 22","ulica":"ADAMA CHMIELOWSKIEGO","nrBud":"1"},"geometry":{"type":"Point","coordinates":[19.94189,50.04611]}},{"type":"Feature","properties":{"nr":"5","siedziba":"Samorządowe Przedszkole Nr 45","ulica":"PIEKARSKA","nrBud":"14"},"geometry":{"type":"Point","coordinates":[19.93979,50.04786]}},{"type":"Feature","properties":{"nr":"6","siedziba":"XLIV Liceum Ogólnokształcące","ulica":"BERNARDYŃSKA","nrBud":"7"},"geometry":{"type":"Point","coordinates":[19.9363,50.05282]}},{"type":"Feature","properties":{"nr":"7","siedziba":"Zespół Szkolno-Przedszkolny Nr 6","ulica":"JÓZEFA DIETLA","nrBud":"70"},"geometry":{"type":"Point","coordinates":[19.94438,50.05584]}},{"type":"Feature","properties":{"nr":"8","siedziba":"Urząd Miasta Krakowa","ulica":"WIELOPOLE","nrBud":"17A"},"geometry":{"type":"Point","coordinates":[19.94553,50.05786]}},{"type":"Feature","properties":{"nr":"9","siedziba":"Szkoła Podstawowa Nr 1","ulica":"ŚW. MARKA","nrBud":"34"},"geometry":{"type":"Point","coordinates":[19.94343,50.0628]}},{"type":"Feature","properties":{"nr":"10","siedziba":"Szkoła Podstawowa Nr 1","ulica":"ŚW. MARKA","nrBud":"34"},"geometry":{"type":"Point","coordinates":[19.94343,50.06271]}},{"type":"Feature","properties":{"nr":"11","siedziba":"I Liceum Ogólnokształcące","ulica":"PL. NA GROBLACH","nrBud":"9"},"geometry":{"type":"Point","coordinates":[19.93341,50.05695]}},{"type":"Feature","properties":{"nr":"12","siedziba":"Szkoła Podstawowa Nr 4","ulica":"SMOLEŃSK","nrBud":"5 - 7"},"geometry":{"type":"Point","coordinates":[19.93193,50.05933]}},{"type":"Feature","properties":{"nr":"13","siedziba":"Zespół Szkół Mechanicznych Nr 1","ulica":"ALEJA ADAMA MICKIEWICZA","nrBud":"5"},"geometry":{"type":"Point","coordinates":[19.9245,50.06149]}},{"type":"Feature","properties":{"nr":"14","siedziba":"Zespół Szkół Energetycznych","ulica":"LORETAŃSKA","nrBud":"16"},"geometry":{"type":"Point","coordinates":[19.93071,50.06164]}},{"type":"Feature","properties":{"nr":"15","siedziba":"Branżowa Szkoła I Stopnia Nr 30","ulica":"JÓZEFA SZUJSKIEGO","nrBud":"2"},"geometry":{"type":"Point","coordinates":[19.92929,50.06365]}},{"type":"Feature","properties":{"nr":"16","siedziba":"Małopolskie Centrum Doskonalenia Nauczycieli Ośrodek w Krakowie","ulica":"GARBARSKA","nrBud":"1"},"geometry":{"type":"Point","coordinates":[19.93486,50.06593]}},{"type":"Feature","properties":{"nr":"17","siedziba":"II Liceum Ogólnokształcące","ulica":"JANA SOBIESKIEGO","nrBud":"9"},"geometry":{"type":"Point","coordinates":[19.93124,50.06835]}},{"type":"Feature","properties":{"nr":"18","siedziba":"II Liceum Ogólnokształcące","ulica":"JANA SOBIESKIEGO","nrBud":"9"},"geometry":{"type":"Point","coordinates":[19.93124,50.06826]}},{"type":"Feature","properties":{"nr":"19","siedziba":"Centrum Medyczne 4M","ulica":"KROWODERSKA","nrBud":"17"},"geometry":{"type":"Point","coordinates":[19.93771,50.06773]}},{"type":"Feature","properties":{"nr":"20","siedziba":"Samorządowe Przedszkole Nr 44","ulica":"JERZEGO ŻUŁAWSKIEGO","nrBud":"9"},"geometry":{"type":"Point","coordinates":[19.93388,50.07271]}},{"type":"Feature","properties":{"nr":"21","siedziba":"X Liceum Ogólnokształcące","ulica":"ZYGMUNTA WRÓBLEWSKIEGO","nrBud":"8"},"geometry":{"type":"Point","coordinates":[19.93956,50.06947]}},{"type":"Feature","properties":{"nr":"22","siedziba":"XLI Liceum Ogólnokształcące","ulica":"RYNEK KLEPARSKI","nrBud":"18"},"geometry":{"type":"Point","coordinates":[19.94153,50.06735]}},{"type":"Feature","properties":{"nr":"23","siedziba":"Szkoła Podstawowa Nr 95","ulica":"WILEŃSKA","nrBud":"9B"},"geometry":{"type":"Point","coordinates":[19.95518,50.08126]}},{"type":"Feature","properties":{"nr":"24","siedziba":"Zespół Szkół Ogólnokształcących Mistrzostwa Sportowego","ulica":"GROCHOWSKA","nrBud":"20"},"geometry":{"type":"Point","coordinates":[19.96233,50.07363]}},{"type":"Feature","properties":{"nr":"25","siedziba":"Zespół Szkół Ogólnokształcących Mistrzostwa Sportowego","ulica":"GROCHOWSKA","nrBud":"20"},"geometry":{"type":"Point","coordinates":[19.96233,50.07354]}},{"type":"Feature","properties":{"nr":"26","siedziba":"Szkoła Podstawowa z Oddziałami Integracyjnymi Nr 3","ulica":"TOPOLOWA","nrBud":"22"},"geometry":{"type":"Point","coordinates":[19.95305,50.06693]}},{"type":"Feature","properties":{"nr":"27","siedziba":"Urząd Miasta Krakowa","ulica":"JANA KASPROWICZA","nrBud":"29"},"geometry":{"type":"Point","coordinates":[19.96779,50.06806]}},{"type":"Feature","properties":{"nr":"28","siedziba":"XXIV Liceum Ogólnokształcące","ulica":"WILHELMA WILKA-WYRWIŃSKIEGO","nrBud":"1"},"geometry":{"type":"Point","coordinates":[19.96561,50.07199]}},{"type":"Feature","properties":{"nr":"29","siedziba":"Młodzieżowy Dom Kultury","ulica":"GRUNWALDZKA","nrBud":"5"},"geometry":{"type":"Point","coordinates":[19.9656,50.06708]}},{"type":"Feature","properties":{"nr":"30","siedziba":"Szkoła Podstawowa Nr 38","ulica":"PŁK. FRANCESCO NULLO","nrBud":"23"},"geometry":{"type":"Point","coordinates":[19.96545,50.06326]}},{"type":"Feature","properties":{"nr":"31","siedziba":"Szkoła Podstawowa Nr 38","ulica":"PŁK. FRANCESCO NULLO","nrBud":"23"},"geometry":{"type":"Point","coordinates":[19.96545,50.06317]}},{"type":"Feature","properties":{"nr":"32","siedziba":"XIII Liceum Ogólnokształcące","ulica":"SĄDOWA","nrBud":"4"},"geometry":{"type":"Point","coordinates":[19.96395,50.06295]}},{"type":"Feature","properties":{"nr":"33","siedziba":"XIII Liceum Ogólnokształcące","ulica":"SĄDOWA","nrBud":"4"},"geometry":{"type":"Point","coordinates":[19.96396,50.06286]}},{"type":"Feature","properties":{"nr":"34","siedziba":"VIII Liceum Ogólnokształcące","ulica":"GRZEGÓRZECKA","nrBud":"24"},"geometry":{"type":"Point","coordinates":[19.95543,50.05869]}},{"type":"Feature","properties":{"nr":"35","siedziba":"Zespół Szkół Ogólnokształcących nr 1","ulica":"KS. FRANCISZKA BLACHNICKIEGO","nrBud":"1"},"geometry":{"type":"Point","coordinates":[19.9514,50.05561]}},{"type":"Feature","properties":{"nr":"36","siedziba":"VIII Liceum Ogólnokształcące","ulica":"GRZEGÓRZECKA","nrBud":"24"},"geometry":{"type":"Point","coordinates":[19.95543,50.0586]}},{"type":"Feature","properties":{"nr":"37","siedziba":"Bursa Szkolnictwa Ponadpodstawowego Nr 1","ulica":"RZEŹNICZA","nrBud":"4"},"geometry":{"type":"Point","coordinates":[19.9569,50.05669]}},{"type":"Feature","properties":{"nr":"38","siedziba":"Szkoła Podstawowa Nr 18","ulica":"PÓŁKOLE","nrBud":"11"},"geometry":{"type":"Point","coordinates":[19.98187,50.06012]}},{"type":"Feature","properties":{"nr":"39","siedziba":"Szkoła Podstawowa Nr 18","ulica":"PÓŁKOLE","nrBud":"11"},"geometry":{"type":"Point","coordinates":[19.98187,50.06003]}},{"type":"Feature","properties":{"nr":"40","siedziba":"Szkoła Podstawowa Nr 39","ulica":"STANISŁAWA JACHOWICZA","nrBud":"5"},"geometry":{"type":"Point","coordinates":[19.97739,50.06193]}},{"type":"Feature","properties":{"nr":"41","siedziba":"Szkoła Podstawowa Nr 39","ulica":"STANISŁAWA JACHOWICZA","nrBud":"5"},"geometry":{"type":"Point","coordinates":[19.97739,50.06184]}},{"type":"Feature","properties":{"nr":"42","siedziba":"Szkoła Podstawowa Nr 114","ulica":"ŁĄKOWA","nrBud":"31"},"geometry":{"type":"Point","coordinates":[19.98426,50.07388]}},{"type":"Feature","properties":{"nr":"43","siedziba":"Szkoła Podstawowa Nr 114","ulica":"ŁĄKOWA","nrBud":"31"},"geometry":{"type":"Point","coordinates":[19.98426,50.07379]}},{"type":"Feature","properties":{"nr":"44","siedziba":"Zespół Szkół Nr 1","ulica":"UŁANÓW","nrBud":"3"},"geometry":{"type":"Point","coordinates":[19.98642,50.07464]}},{"type":"Feature","properties":{"nr":"45","siedziba":"Zespół Szkół Nr 1","ulica":"UŁANÓW","nrBud":"3"},"geometry":{"type":"Point","coordinates":[19.98643,50.07455]}},{"type":"Feature","properties":{"nr":"46","siedziba":"Zespół Szkół Ogólnokształcących Nr 9","ulica":"SENIORÓW LOTNICTWA","nrBud":"5"},"geometry":{"type":"Point","coordinates":[19.9861,50.07948]}},{"type":"Feature","properties":{"nr":"47","siedziba":"Zespół Szkół Ogólnokształcących Nr 9","ulica":"SENIORÓW LOTNICTWA","nrBud":"5"},"geometry":{"type":"Point","coordinates":[19.98611,50.07939]}},{"type":"Feature","properties":{"nr":"48","siedziba":"Szkoła Muzyczna I Stopnia Nr 1","ulica":"PILOTÓW","nrBud":"51"},"geometry":{"type":"Point","coordinates":[19.97357,50.0801]}},{"type":"Feature","properties":{"nr":"49","siedziba":"Zespół Szkół Przemysłu Spożywczego","ulica":"MACIEJA MIECHOWITY","nrBud":"6"},"geometry":{"type":"Point","coordinates":[19.96597,50.08292]}},{"type":"Feature","properties":{"nr":"50","siedziba":"Zespół Szkół Przemysłu Spożywczego","ulica":"MACIEJA MIECHOWITY","nrBud":"6"},"geometry":{"type":"Point","coordinates":[19.96598,50.08283]}},{"type":"Feature","properties":{"nr":"51","siedziba":"Zespół Szkół Przemysłu Spożywczego","ulica":"MACIEJA MIECHOWITY","nrBud":"6"},"geometry":{"type":"Point","coordinates":[19.96598,50.08274]}},{"type":"Feature","properties":{"nr":"52","siedziba":"Samorządowe Przedszkole Nr 14","ulica":"MŁYŃSKA BOCZNA","nrBud":"4"},"geometry":{"type":"Point","coordinates":[19.97344,50.08301]}},{"type":"Feature","properties":{"nr":"53","siedziba":"Szkoła Podstawowa Nr 64","ulica":"SADZAWKI","nrBud":"1"},"geometry":{"type":"Point","coordinates":[19.9751,50.08257]}},{"type":"Feature","properties":{"nr":"54","siedziba":"Szkoła Podstawowa Nr 64","ulica":"SADZAWKI","nrBud":"1"},"geometry":{"type":"Point","coordinates":[19.9751,50.08248]}},{"type":"Feature","properties":{"nr":"55","siedziba":"Szkoła Podstawowa Nr 64","ulica":"SADZAWKI","nrBud":"1"},"geometry":{"type":"Point","coordinates":[19.9751,50.08239]}},{"type":"Feature","properties":{"nr":"56","siedziba":"Szkoła Podstawowa Nr 2","ulica":"STRZELCÓW","nrBud":"5A"},"geometry":{"type":"Point","coordinates":[19.97134,50.09198]}},{"type":"Feature","properties":{"nr":"57","siedziba":"Szkoła Podstawowa Nr 2","ulica":"STRZELCÓW","nrBud":"5A"},"geometry":{"type":"Point","coordinates":[19.97134,50.09189]}},{"type":"Feature","properties":{"nr":"58","siedziba":"Szkoła Podstawowa Nr 2","ulica":"STRZELCÓW","nrBud":"5A"},"geometry":{"type":"Point","coordinates":[19.97134,50.0918]}},{"type":"Feature","properties":{"nr":"59","siedziba":"Szkoła Podstawowa Nr 2","ulica":"STRZELCÓW","nrBud":"5A"},"geometry":{"type":"Point","coordinates":[19.97135,50.09171]}},{"type":"Feature","properties":{"nr":"60","siedziba":"Szkoła Podstawowa Nr 2","ulica":"STRZELCÓW","nrBud":"5A"},"geometry":{"type":"Point","coordinates":[19.97135,50.09162]}},{"type":"Feature","properties":{"nr":"61","siedziba":"Zespół Szkół Ogólnokształcących Nr 13","ulica":"KAZIMIERZA ODNOWICIELA","nrBud":"2"},"geometry":{"type":"Point","coordinates":[19.97062,50.0877]}},{"type":"Feature","properties":{"nr":"62","siedziba":"Samorządowe Przedszkole Nr 178","ulica":"SUDOLSKA","nrBud":"3"},"geometry":{"type":"Point","coordinates":[19.96623,50.09156]}},{"type":"Feature","properties":{"nr":"63","siedziba":"Samorządowe Przedszkole Nr 178","ulica":"SUDOLSKA","nrBud":"3"},"geometry":{"type":"Point","coordinates":[19.96624,50.09147]}},{"type":"Feature","properties":{"nr":"64","siedziba":"Młodzieżowy Dom Kultury","ulica":"AL. 29 LISTOPADA","nrBud":"102"},"geometry":{"type":"Point","coordinates":[19.95747,50.08905]}},{"type":"Feature","properties":{"nr":"65","siedziba":"Szkoła Podstawowa Nr 95","ulica":"WILEŃSKA","nrBud":"9B"},"geometry":{"type":"Point","coordinates":[19.95519,50.08117]}},{"type":"Feature","properties":{"nr":"66","siedziba":"Szkoła Podstawowa Nr 95","ulica":"WILEŃSKA","nrBud":"9B"},"geometry":{"type":"Point","coordinates":[19.95519,50.08108]}},{"type":"Feature","properties":{"nr":"67","siedziba":"Szkoła Podstawowa Nr 95","ulica":"WILEŃSKA","nrBud":"9B"},"geometry":{"type":"Point","coordinates":[19.95519,50.08099]}},{"type":"Feature","properties":{"nr":"68","siedziba":"Młodzieżowy Dom Kultury","ulica":"AL. 29 LISTOPADA","nrBud":"102"},"geometry":{"type":"Point","coordinates":[19.95747,50.08896]}},{"type":"Feature","properties":{"nr":"69","siedziba":"Zespół Szkolno-Przedszkolny Nr 12","ulica":"KS. JÓZEFA MEIERA","nrBud":"16D"},"geometry":{"type":"Point","coordinates":[19.96398,50.0989]}},{"type":"Feature","properties":{"nr":"70","siedziba":"Zespół Szkolno-Przedszkolny Nr 12","ulica":"KS. JÓZEFA MEIERA","nrBud":"16D"},"geometry":{"type":"Point","coordinates":[19.96398,50.09881]}},{"type":"Feature","properties":{"nr":"71","siedziba":"Zespół Szkolno-Przedszkolny Nr 12","ulica":"KS. JÓZEFA MEIERA","nrBud":"16D"},"geometry":{"type":"Point","coordinates":[19.96398,50.09872]}},{"type":"Feature","properties":{"nr":"72","siedziba":"Zespół Szkolno-Przedszkolny Nr 2","ulica":"PORZECZKOWA","nrBud":"3"},"geometry":{"type":"Point","coordinates":[19.94428,50.10229]}},{"type":"Feature","properties":{"nr":"73","siedziba":"Zespół Szkolno-Przedszkolny Nr 2","ulica":"PORZECZKOWA","nrBud":"3"},"geometry":{"type":"Point","coordinates":[19.94428,50.1022]}},{"type":"Feature","properties":{"nr":"74","siedziba":"Szkoła Podstawowa Nr 58","ulica":"STANISŁAWA PIGONIA","nrBud":"2"},"geometry":{"type":"Point","coordinates":[19.93392,50.09413]}},{"type":"Feature","properties":{"nr":"75","siedziba":"Szkoła Podstawowa Nr 58","ulica":"STANISŁAWA PIGONIA","nrBud":"2"},"geometry":{"type":"Point","coordinates":[19.93392,50.09404]}},{"type":"Feature","properties":{"nr":"76","siedziba":"Zespół Szkolno-Przedszkolny Nr 16","ulica":"JÓZEFA MACKIEWICZA","nrBud":"15"},"geometry":{"type":"Point","coordinates":[19.94583,50.09362]}},{"type":"Feature","properties":{"nr":"77","siedziba":"Zespół Szkolno-Przedszkolny Nr 16","ulica":"JÓZEFA MACKIEWICZA","nrBud":"15"},"geometry":{"type":"Point","coordinates":[19.94583,50.09353]}},{"type":"Feature","properties":{"nr":"78","siedziba":"Zespół Szkolno-Przedszkolny Nr 16","ulica":"JÓZEFA MACKIEWICZA","nrBud":"15"},"geometry":{"type":"Point","coordinates":[19.94583,50.09344]}},{"type":"Feature","properties":{"nr":"79","siedziba":"Zespół Szkolno-Przedszkolny Nr 16","ulica":"JÓZEFA MACKIEWICZA","nrBud":"15"},"geometry":{"type":"Point","coordinates":[19.94583,50.09335]}},{"type":"Feature","properties":{"nr":"80","siedziba":"Zespół Szkolno-Przedszkolny Nr 16","ulica":"JÓZEFA MACKIEWICZA","nrBud":"15"},"geometry":{"type":"Point","coordinates":[19.94583,50.09326]}},{"type":"Feature","properties":{"nr":"81","siedziba":"Szkoła Podstawowa z Oddziałami Integracyjnymi Nr 107","ulica":"ZDROWA","nrBud":"6"},"geometry":{"type":"Point","coordinates":[19.94115,50.08945]}},{"type":"Feature","properties":{"nr":"82","siedziba":"Szkoła Podstawowa z Oddziałami Integracyjnymi Nr 107","ulica":"ZDROWA","nrBud":"6"},"geometry":{"type":"Point","coordinates":[19.94115,50.08936]}},{"type":"Feature","properties":{"nr":"83","siedziba":"Szkoła Podstawowa z Oddziałami Integracyjnymi Nr 107","ulica":"ZDROWA","nrBud":"6"},"geometry":{"type":"Point","coordinates":[19.94116,50.08927]}},{"type":"Feature","properties":{"nr":"84","siedziba":"Szkoła Podstawowa z Oddziałami Integracyjnymi Nr 107","ulica":"ZDROWA","nrBud":"6"},"geometry":{"type":"Point","coordinates":[19.94116,50.08918]}},{"type":"Feature","properties":{"nr":"85","siedziba":"Szkoła Podstawowa z Oddziałami Integracyjnymi Nr 15","ulica":"KLUCZBORSKA","nrBud":"3"},"geometry":{"type":"Point","coordinates":[19.9291,50.08742]}},{"type":"Feature","properties":{"nr":"86","siedziba":"Szkoła Podstawowa z Oddziałami Integracyjnymi Nr 15","ulica":"KLUCZBORSKA","nrBud":"3"},"geometry":{"type":"Point","coordinates":[19.9291,50.08733]}},{"type":"Feature","properties":{"nr":"87","siedziba":"Szkoła Podstawowa z Oddziałami Integracyjnymi Nr 15","ulica":"KLUCZBORSKA","nrBud":"3"},"geometry":{"type":"Point","coordinates":[19.9291,50.08724]}},{"type":"Feature","properties":{"nr":"88","siedziba":"Szkoła Podstawowa z Oddziałami Integracyjnymi Nr 15","ulica":"KLUCZBORSKA","nrBud":"3"},"geometry":{"type":"Point","coordinates":[19.92911,50.08716]}},{"type":"Feature","properties":{"nr":"89","siedziba":"Szkoła Podstawowa Nr 21","ulica":"BATALIONU „SKAŁA” AK","nrBud":"12"},"geometry":{"type":"Point","coordinates":[19.92281,50.08983]}},{"type":"Feature","properties":{"nr":"90","siedziba":"Szkoła Podstawowa Nr 21","ulica":"BATALIONU „SKAŁA” AK","nrBud":"12"},"geometry":{"type":"Point","coordinates":[19.92282,50.08974]}},{"type":"Feature","properties":{"nr":"91","siedziba":"Szkoła Podstawowa Nr 21","ulica":"BATALIONU „SKAŁA” AK","nrBud":"12"},"geometry":{"type":"Point","coordinates":[19.92282,50.08965]}},{"type":"Feature","properties":{"nr":"92","siedziba":"Samorządowe Przedszkole Nr 165","ulica":"WINCENTEGO DANKA","nrBud":"1"},"geometry":{"type":"Point","coordinates":[19.92609,50.09301]}},{"type":"Feature","properties":{"nr":"93","siedziba":"Szkoła Podstawowa Nr 67","ulica":"KACZORÓWKA","nrBud":"4"},"geometry":{"type":"Point","coordinates":[19.90579,50.10713]}},{"type":"Feature","properties":{"nr":"94","siedziba":"Zespół Szkolno-Przedszkolny Nr 14","ulica":"STAWOWA","nrBud":"179"},"geometry":{"type":"Point","coordinates":[19.88484,50.09645]}},{"type":"Feature","properties":{"nr":"95","siedziba":"Zespół Szkolno-Przedszkolny Nr 14","ulica":"STAWOWA","nrBud":"179"},"geometry":{"type":"Point","coordinates":[19.88484,50.09636]}},{"type":"Feature","properties":{"nr":"96","siedziba":"Publiczna Katolicka Szkoła Podstawowa im. św. Joanny Beretty Molli","ulica":"STELMACHÓW","nrBud":"137"},"geometry":{"type":"Point","coordinates":[19.9043,50.09526]}},{"type":"Feature","properties":{"nr":"97","siedziba":"Szkoła Podstawowa Nr 119","ulica":"BOLESŁAWA CZERWIEŃSKIEGO","nrBud":"1"},"geometry":{"type":"Point","coordinates":[19.90272,50.08482]}},{"type":"Feature","properties":{"nr":"98","siedziba":"Szkoła Podstawowa Nr 119","ulica":"BOLESŁAWA CZERWIEŃSKIEGO","nrBud":"1"},"geometry":{"type":"Point","coordinates":[19.90272,50.08473]}},{"type":"Feature","properties":{"nr":"99","siedziba":"Szkoła Podstawowa Nr 119","ulica":"BOLESŁAWA CZERWIEŃSKIEGO","nrBud":"1"},"geometry":{"type":"Point","coordinates":[19.90272,50.08464]}},{"type":"Feature","properties":{"nr":"100","siedziba":"Szkoła Podstawowa Nr 119","ulica":"BOLESŁAWA CZERWIEŃSKIEGO","nrBud":"1"},"geometry":{"type":"Point","coordinates":[19.90272,50.08455]}},{"type":"Feature","properties":{"nr":"101","siedziba":"Szkoła Podstawowa Nr 119","ulica":"BOLESŁAWA CZERWIEŃSKIEGO","nrBud":"1"},"geometry":{"type":"Point","coordinates":[19.90272,50.08446]}},{"type":"Feature","properties":{"nr":"102","siedziba":"XIV Liceum Ogólnokształcące","ulica":"JÓZEFA CHEŁMOŃSKIEGO","nrBud":"24"},"geometry":{"type":"Point","coordinates":[19.91339,50.08693]}},{"type":"Feature","properties":{"nr":"103","siedziba":"XIV Liceum Ogólnokształcące","ulica":"JÓZEFA CHEŁMOŃSKIEGO","nrBud":"24"},"geometry":{"type":"Point","coordinates":[19.91339,50.08684]}},{"type":"Feature","properties":{"nr":"104","siedziba":"Szkoła Podstawowa Nr 113","ulica":"PIOTRA STACHIEWICZA","nrBud":"33"},"geometry":{"type":"Point","coordinates":[19.91702,50.08616]}},{"type":"Feature","properties":{"nr":"105","siedziba":"Szkoła Podstawowa Nr 113","ulica":"PIOTRA STACHIEWICZA","nrBud":"33"},"geometry":{"type":"Point","coordinates":[19.91702,50.08607]}},{"type":"Feature","properties":{"nr":"106","siedziba":"Zespół Szkół Specjalnych Nr 4","ulica":"ZAKĄTEK","nrBud":"2"},"geometry":{"type":"Point","coordinates":[19.91625,50.07589]}},{"type":"Feature","properties":{"nr":"107","siedziba":"Zespół Szkół Specjalnych Nr 4","ulica":"ZAKĄTEK","nrBud":"2"},"geometry":{"type":"Point","coordinates":[19.91625,50.0758]}},{"type":"Feature","properties":{"nr":"108","siedziba":"Zespół Szkolno-Przedszkolny nr 18 w Krakowie","ulica":"LITEWSKA","nrBud":"34"},"geometry":{"type":"Point","coordinates":[19.92209,50.07766]}},{"type":"Feature","properties":{"nr":"109","siedziba":"Zespół Szkolno-Przedszkolny nr 18 w Krakowie","ulica":"LITEWSKA","nrBud":"34"},"geometry":{"type":"Point","coordinates":[19.9221,50.07757]}},{"type":"Feature","properties":{"nr":"110","siedziba":"Szkoła Podstawowa Nr 36","ulica":"MAZOWIECKA","nrBud":"70"},"geometry":{"type":"Point","coordinates":[19.92249,50.07604]}},{"type":"Feature","properties":{"nr":"111","siedziba":"Szkoła Podstawowa Nr 36","ulica":"MAZOWIECKA","nrBud":"70"},"geometry":{"type":"Point","coordinates":[19.92249,50.07595]}},{"type":"Feature","properties":{"nr":"112","siedziba":"Szkoła Podstawowa Nr 36","ulica":"MAZOWIECKA","nrBud":"70"},"geometry":{"type":"Point","coordinates":[19.92249,50.07586]}},{"type":"Feature","properties":{"nr":"113","siedziba":"Szkoła Podstawowa Nr 36","ulica":"MAZOWIECKA","nrBud":"70"},"geometry":{"type":"Point","coordinates":[19.9225,50.07577]}},{"type":"Feature","properties":{"nr":"114","siedziba":"Urząd Miasta Krakowa","ulica":"LUBELSKA","nrBud":"27"},"geometry":{"type":"Point","coordinates":[19.93469,50.07436]}},{"type":"Feature","properties":{"nr":"115","siedziba":"Zespół Szkolno-Przedszkolny Nr 4","ulica":"URZĘDNICZA","nrBud":"65"},"geometry":{"type":"Point","coordinates":[19.92121,50.07414]}},{"type":"Feature","properties":{"nr":"116","siedziba":"Uniwersytet Ekonomiczny, Instytut Nauk o Jakości i Zarządzania Produktem","ulica":"HENRYKA SIENKIEWICZA","nrBud":"4"},"geometry":{"type":"Point","coordinates":[19.92587,50.07041]}},{"type":"Feature","properties":{"nr":"117","siedziba":"Szkoła Podstawowa Nr 33","ulica":"STANISŁAWA KONARSKIEGO","nrBud":"2"},"geometry":{"type":"Point","coordinates":[19.92037,50.06738]}},{"type":"Feature","properties":{"nr":"118","siedziba":"IX Liceum Ogólnokształcące","ulica":"KAZIMIERZA CZAPIŃSKIEGO","nrBud":"5"},"geometry":{"type":"Point","coordinates":[19.91919,50.06905]}},{"type":"Feature","properties":{"nr":"119","siedziba":"Szkoła Podstawowa z Oddziałami Integracyjnymi Nr 12","ulica":"ALEJA KIJOWSKA","nrBud":"3"},"geometry":{"type":"Point","coordinates":[19.91338,50.06891]}},{"type":"Feature","properties":{"nr":"120","siedziba":"Szkoła Podstawowa z Oddziałami Sportowymi Nr 5","ulica":"ALEJA KIJOWSKA","nrBud":"8"},"geometry":{"type":"Point","coordinates":[19.91451,50.07003]}},{"type":"Feature","properties":{"nr":"121","siedziba":"MDK \"Dom Harcerza\"","ulica":"WŁADYSŁAWA REYMONTA","nrBud":"18"},"geometry":{"type":"Point","coordinates":[19.91473,50.06531]}},{"type":"Feature","properties":{"nr":"122","siedziba":"VII Liceum Ogólnokształcące","ulica":"STANISŁAWA SKARBIŃSKIEGO","nrBud":"5"},"geometry":{"type":"Point","coordinates":[19.90867,50.07096]}},{"type":"Feature","properties":{"nr":"123","siedziba":"VII Liceum Ogólnokształcące","ulica":"STANISŁAWA SKARBIŃSKIEGO","nrBud":"5"},"geometry":{"type":"Point","coordinates":[19.90867,50.07087]}},{"type":"Feature","properties":{"nr":"124","siedziba":"VII Liceum Ogólnokształcące","ulica":"STANISŁAWA SKARBIŃSKIEGO","nrBud":"5"},"geometry":{"type":"Point","coordinates":[19.90867,50.07078]}},{"type":"Feature","properties":{"nr":"125","siedziba":"Szkoła Podstawowa Nr 93","ulica":"FELIKSA SZLACHTOWSKIEGO","nrBud":"31"},"geometry":{"type":"Point","coordinates":[19.90032,50.07334]}},{"type":"Feature","properties":{"nr":"126","siedziba":"Szkoła Podstawowa Nr 93","ulica":"FELIKSA SZLACHTOWSKIEGO","nrBud":"31"},"geometry":{"type":"Point","coordinates":[19.90032,50.07325]}},{"type":"Feature","properties":{"nr":"127","siedziba":"Zespół Szkół Ogólnokształcących Nr 7","ulica":"ZŁOTY RÓG","nrBud":"30"},"geometry":{"type":"Point","coordinates":[19.89505,50.08163]}},{"type":"Feature","properties":{"nr":"128","siedziba":"Zespół Szkół Ogólnokształcących Nr 7","ulica":"ZŁOTY RÓG","nrBud":"30"},"geometry":{"type":"Point","coordinates":[19.89505,50.08154]}},{"type":"Feature","properties":{"nr":"129","siedziba":"Centrum Kształcenia Zawodowego Nr 1 Wydział Budowlany","ulica":"WESELE","nrBud":"41"},"geometry":{"type":"Point","coordinates":[19.89497,50.07564]}},{"type":"Feature","properties":{"nr":"130","siedziba":"Zespół Szkół Architektoniczno-Budowlanych","ulica":"JERZEGO SZABLOWSKIEGO","nrBud":"1"},"geometry":{"type":"Point","coordinates":[19.89343,50.07647]}},{"type":"Feature","properties":{"nr":"131","siedziba":"XVIII Liceum Ogólnokształcące","ulica":"NA BŁONIE","nrBud":"15B"},"geometry":{"type":"Point","coordinates":[19.88248,50.07766]}},{"type":"Feature","properties":{"nr":"132","siedziba":"XVIII Liceum Ogólnokształcące","ulica":"NA BŁONIE","nrBud":"15B"},"geometry":{"type":"Point","coordinates":[19.88248,50.07757]}},{"type":"Feature","properties":{"nr":"133","siedziba":"Szkoła Podstawowa Nr 153","ulica":"NA BŁONIE","nrBud":"15D"},"geometry":{"type":"Point","coordinates":[19.88398,50.07746]}},{"type":"Feature","properties":{"nr":"134","siedziba":"Szkoła Podstawowa Nr 153","ulica":"NA BŁONIE","nrBud":"15D"},"geometry":{"type":"Point","coordinates":[19.88398,50.07737]}},{"type":"Feature","properties":{"nr":"135","siedziba":"Szkoła Podstawowa Nr 50","ulica":"KATOWICKA","nrBud":"28"},"geometry":{"type":"Point","coordinates":[19.88198,50.08448]}},{"type":"Feature","properties":{"nr":"136","siedziba":"Szkoła Podstawowa Nr 138","ulica":"KAZIMIERZA WIERZYŃSKIEGO","nrBud":"3"},"geometry":{"type":"Point","coordinates":[19.84688,50.08464]}},{"type":"Feature","properties":{"nr":"137","siedziba":"Szkoła Podstawowa Nr 138","ulica":"KAZIMIERZA WIERZYŃSKIEGO","nrBud":"3"},"geometry":{"type":"Point","coordinates":[19.84689,50.08455]}},{"type":"Feature","properties":{"nr":"138","siedziba":"Publiczna Szkoła Podstawowa Sióstr Pijarek im. św. Józefa Kalasancjusza","ulica":"GRZEGORZA KORZENIAKA","nrBud":"18"},"geometry":{"type":"Point","coordinates":[19.83362,50.07345]}},{"type":"Feature","properties":{"nr":"139","siedziba":"Centrum Kultury \"Dworek Białoprądnicki\" Klub Kultury \"Chełm\"","ulica":"CHEŁMSKA","nrBud":"16"},"geometry":{"type":"Point","coordinates":[19.84658,50.0676]}},{"type":"Feature","properties":{"nr":"140","siedziba":"Szkoła Podstawowa Nr 48","ulica":"KSIĘCIA JÓZEFA","nrBud":"337"},"geometry":{"type":"Point","coordinates":[19.82477,50.04419]}},{"type":"Feature","properties":{"nr":"141","siedziba":"Centrum Kultury \"Dworek Białoprądnicki\" Klub Kultury „Przegorzały”","ulica":"KAMEDULSKA","nrBud":"70"},"geometry":{"type":"Point","coordinates":[19.87382,50.04826]}},{"type":"Feature","properties":{"nr":"142","siedziba":"Szkoła Podstawowa Nr 72","ulica":"ALEJA MODRZEWIOWA","nrBud":"23"},"geometry":{"type":"Point","coordinates":[19.86504,50.06436]}},{"type":"Feature","properties":{"nr":"143","siedziba":"Szkoła Podstawowa Nr 72","ulica":"ALEJA MODRZEWIOWA","nrBud":"23"},"geometry":{"type":"Point","coordinates":[19.86505,50.06427]}},{"type":"Feature","properties":{"nr":"144","siedziba":"Szkoła Podstawowa Nr 32","ulica":"KRÓLOWEJ JADWIGI","nrBud":"78"},"geometry":{"type":"Point","coordinates":[19.90443,50.05587]}},{"type":"Feature","properties":{"nr":"145","siedziba":"Szkoła Podstawowa Nr 32","ulica":"KRÓLOWEJ JADWIGI","nrBud":"78"},"geometry":{"type":"Point","coordinates":[19.90443,50.05578]}},{"type":"Feature","properties":{"nr":"146","siedziba":"Szkoła Podstawowa Nr 31","ulica":"BOLESŁAWA PRUSA","nrBud":"18"},"geometry":{"type":"Point","coordinates":[19.91738,50.05577]}},{"type":"Feature","properties":{"nr":"147","siedziba":"Zespół Szkół Ogólnokształcących Nr 18","ulica":"SENATORSKA","nrBud":"35"},"geometry":{"type":"Point","coordinates":[19.91703,50.05373]}},{"type":"Feature","properties":{"nr":"148","siedziba":"Zespół Szkół Ogólnokształcących Nr 18","ulica":"SENATORSKA","nrBud":"35"},"geometry":{"type":"Point","coordinates":[19.91703,50.05364]}},{"type":"Feature","properties":{"nr":"149","siedziba":"Szkoła Podstawowa Nr 110","ulica":"SKWEROWA","nrBud":"3"},"geometry":{"type":"Point","coordinates":[19.92387,50.05062]}},{"type":"Feature","properties":{"nr":"150","siedziba":"Szkoła Podstawowa Nr 110","ulica":"SKWEROWA","nrBud":"3"},"geometry":{"type":"Point","coordinates":[19.92387,50.05053]}},{"type":"Feature","properties":{"nr":"151","siedziba":"Szkoła Podstawowa Nr 25","ulica":"KOMANDOSÓW","nrBud":"29"},"geometry":{"type":"Point","coordinates":[19.93215,50.04274]}},{"type":"Feature","properties":{"nr":"152","siedziba":"Szkoła Podstawowa Nr 25","ulica":"KOMANDOSÓW","nrBud":"29"},"geometry":{"type":"Point","coordinates":[19.93215,50.04265]}},{"type":"Feature","properties":{"nr":"153","siedziba":"Szkoła Podstawowa Nr 25","ulica":"KOMANDOSÓW","nrBud":"29"},"geometry":{"type":"Point","coordinates":[19.93215,50.04256]}},{"type":"Feature","properties":{"nr":"154","siedziba":"Szkoła Podstawowa Nr 25","ulica":"KOMANDOSÓW","nrBud":"29"},"geometry":{"type":"Point","coordinates":[19.93216,50.04247]}},{"type":"Feature","properties":{"nr":"155","siedziba":"Zespół Szkół Łączności","ulica":"MONTE CASSINO","nrBud":"31"},"geometry":{"type":"Point","coordinates":[19.92232,50.04642]}},{"type":"Feature","properties":{"nr":"156","siedziba":"Zespół Szkół Łączności","ulica":"MONTE CASSINO","nrBud":"31"},"geometry":{"type":"Point","coordinates":[19.92232,50.04633]}},{"type":"Feature","properties":{"nr":"157","siedziba":"Specjalny Ośrodek Szkolno-Wychowawczy Nr 3","ulica":"PRASKA","nrBud":"64"},"geometry":{"type":"Point","coordinates":[19.90738,50.04477]}},{"type":"Feature","properties":{"nr":"158","siedziba":"Szkoła Podstawowa Nr 62","ulica":"ĆWIKŁOWA","nrBud":"1"},"geometry":{"type":"Point","coordinates":[19.88908,50.03588]}},{"type":"Feature","properties":{"nr":"159","siedziba":"Szkoła Podstawowa Nr 62","ulica":"ĆWIKŁOWA","nrBud":"1"},"geometry":{"type":"Point","coordinates":[19.88908,50.03579]}},{"type":"Feature","properties":{"nr":"160","siedziba":"Szkoła Podstawowa Nr 54","ulica":"TYNIECKA","nrBud":"122"},"geometry":{"type":"Point","coordinates":[19.85843,50.02951]}},{"type":"Feature","properties":{"nr":"161","siedziba":"Centrum Kultury Podgórza Klub Tyniec","ulica":"DZIEWIARZY","nrBud":"7"},"geometry":{"type":"Point","coordinates":[19.8069,50.01809]}},{"type":"Feature","properties":{"nr":"162","siedziba":"Centrum Kultury Podgórza Klub Tyniec","ulica":"DZIEWIARZY","nrBud":"7"},"geometry":{"type":"Point","coordinates":[19.80691,50.018]}},{"type":"Feature","properties":{"nr":"163","siedziba":"Zespół Szkolno-Przedszkolny Nr 8","ulica":"MIECZYSŁAWA WRONY","nrBud":"115"},"geometry":{"type":"Point","coordinates":[19.87229,49.98786]}},{"type":"Feature","properties":{"nr":"164","siedziba":"Zespół Szkolno-Przedszkolny Nr 8","ulica":"MIECZYSŁAWA WRONY","nrBud":"115"},"geometry":{"type":"Point","coordinates":[19.87229,49.98777]}},{"type":"Feature","properties":{"nr":"165","siedziba":"Zespół Szkolno-Przedszkolny Nr 7","ulica":"SKOTNICKA","nrBud":"86"},"geometry":{"type":"Point","coordinates":[19.87378,50.01682]}},{"type":"Feature","properties":{"nr":"166","siedziba":"Zespół Szkolno-Przedszkolny Nr 7","ulica":"SKOTNICKA","nrBud":"86"},"geometry":{"type":"Point","coordinates":[19.87378,50.01673]}},{"type":"Feature","properties":{"nr":"167","siedziba":"Zespół Szkolno-Przedszkolny Nr 7","ulica":"SKOTNICKA","nrBud":"86"},"geometry":{"type":"Point","coordinates":[19.87378,50.01664]}},{"type":"Feature","properties":{"nr":"168","siedziba":"Szkoła Podstawowa Nr 53","ulica":"SKOŚNA","nrBud":"8"},"geometry":{"type":"Point","coordinates":[19.89961,50.01173]}},{"type":"Feature","properties":{"nr":"169","siedziba":"Szkoła Podstawowa Nr 53","ulica":"SKOŚNA","nrBud":"8"},"geometry":{"type":"Point","coordinates":[19.89961,50.01164]}},{"type":"Feature","properties":{"nr":"170","siedziba":"Szkoła Podstawowa Nr 53","ulica":"SKOŚNA","nrBud":"8"},"geometry":{"type":"Point","coordinates":[19.89961,50.01155]}},{"type":"Feature","properties":{"nr":"171","siedziba":"Szkoła Podstawowa Nr 53","ulica":"SKOŚNA","nrBud":"8"},"geometry":{"type":"Point","coordinates":[19.89961,50.01146]}},{"type":"Feature","properties":{"nr":"172","siedziba":"Szkoła Podstawowa Nr 53","ulica":"SKOŚNA","nrBud":"8"},"geometry":{"type":"Point","coordinates":[19.89962,50.01137]}},{"type":"Feature","properties":{"nr":"173","siedziba":"Szkoła Podstawowa Nr 53","ulica":"SKOŚNA","nrBud":"8"},"geometry":{"type":"Point","coordinates":[19.89962,50.01128]}},{"type":"Feature","properties":{"nr":"174","siedziba":"Szkoła Podstawowa Nr 40","ulica":"PSZCZELNA","nrBud":"13"},"geometry":{"type":"Point","coordinates":[19.91597,50.02618]}},{"type":"Feature","properties":{"nr":"175","siedziba":"Szkoła Podstawowa Nr 40","ulica":"PSZCZELNA","nrBud":"13"},"geometry":{"type":"Point","coordinates":[19.91597,50.02609]}},{"type":"Feature","properties":{"nr":"176","siedziba":"Szkoła Podstawowa Nr 40","ulica":"PSZCZELNA","nrBud":"13"},"geometry":{"type":"Point","coordinates":[19.91598,50.026]}},{"type":"Feature","properties":{"nr":"177","siedziba":"Szkoła Podstawowa Nr 40","ulica":"PSZCZELNA","nrBud":"13"},"geometry":{"type":"Point","coordinates":[19.91598,50.02591]}},{"type":"Feature","properties":{"nr":"178","siedziba":"Szkoła Podstawowa Nr 40","ulica":"PSZCZELNA","nrBud":"13"},"geometry":{"type":"Point","coordinates":[19.91598,50.02582]}},{"type":"Feature","properties":{"nr":"179","siedziba":"Szkoła Podstawowa Nr 40","ulica":"PSZCZELNA","nrBud":"13"},"geometry":{"type":"Point","coordinates":[19.91598,50.02573]}},{"type":"Feature","properties":{"nr":"180","siedziba":"Szkoła Podstawowa z Oddziałami Integracyjnymi Nr 151","ulica":"WACŁAWA LIPIŃSKIEGO","nrBud":"2"},"geometry":{"type":"Point","coordinates":[19.92268,50.03001]}},{"type":"Feature","properties":{"nr":"181","siedziba":"Szkoła Podstawowa z Oddziałami Integracyjnymi Nr 151","ulica":"WACŁAWA LIPIŃSKIEGO","nrBud":"2"},"geometry":{"type":"Point","coordinates":[19.92268,50.02992]}},{"type":"Feature","properties":{"nr":"182","siedziba":"Szkoła Podstawowa z Oddziałami Integracyjnymi Nr 151","ulica":"WACŁAWA LIPIŃSKIEGO","nrBud":"2"},"geometry":{"type":"Point","coordinates":[19.92269,50.02983]}},{"type":"Feature","properties":{"nr":"183","siedziba":"Szkoła Podstawowa z Oddziałami Integracyjnymi Nr 151","ulica":"WACŁAWA LIPIŃSKIEGO","nrBud":"2"},"geometry":{"type":"Point","coordinates":[19.92269,50.02974]}},{"type":"Feature","properties":{"nr":"184","siedziba":"Szkoła Podstawowa z Oddziałami Integracyjnymi Nr 158","ulica":"STRĄKOWA","nrBud":"3A"},"geometry":{"type":"Point","coordinates":[19.92336,50.02645]}},{"type":"Feature","properties":{"nr":"185","siedziba":"Miejskie Przedsiębiorstwo Komunikacyjne S.A.","ulica":"JANA BROŻKA","nrBud":"3"},"geometry":{"type":"Point","coordinates":[19.93234,50.03072]}},{"type":"Feature","properties":{"nr":"186","siedziba":"Sieć Badawcza Łukasiewicz - Łódzki Instytut Technologiczny","ulica":"ZAKOPIAŃSKA","nrBud":"9"},"geometry":{"type":"Point","coordinates":[19.93486,50.02701]}},{"type":"Feature","properties":{"nr":"187","siedziba":"Szkoła Podstawowa Nr 56","ulica":"ALEKSANDRA FREDRY","nrBud":"65"},"geometry":{"type":"Point","coordinates":[19.94236,50.02111]}},{"type":"Feature","properties":{"nr":"188","siedziba":"Szkoła Podstawowa Nr 56","ulica":"ALEKSANDRA FREDRY","nrBud":"65"},"geometry":{"type":"Point","coordinates":[19.94237,50.02102]}},{"type":"Feature","properties":{"nr":"189","siedziba":"Centrum Kultury Podgórza Centrum Sztuki Współczesnej „Solvay”","ulica":"ZAKOPIAŃSKA","nrBud":"62"},"geometry":{"type":"Point","coordinates":[19.92849,50.01301]}},{"type":"Feature","properties":{"nr":"190","siedziba":"Szkoła Podstawowa Nr 49","ulica":"JÓZEFA MONTWIŁŁA-MIRECKIEGO","nrBud":"29"},"geometry":{"type":"Point","coordinates":[19.92416,50.0188]}},{"type":"Feature","properties":{"nr":"191","siedziba":"Szkoła Podstawowa Nr 49","ulica":"JÓZEFA MONTWIŁŁA-MIRECKIEGO","nrBud":"29"},"geometry":{"type":"Point","coordinates":[19.92417,50.01871]}},{"type":"Feature","properties":{"nr":"192","siedziba":"Przedszkole Samorządowe nr 95","ulica":"KOŚCIUSZKOWCÓW","nrBud":"6"},"geometry":{"type":"Point","coordinates":[19.92602,50.01623]}},{"type":"Feature","properties":{"nr":"193","siedziba":"Szkoła Podstawowa Nr 97","ulica":"DOKTORA JUDYMA","nrBud":"10"},"geometry":{"type":"Point","coordinates":[19.91878,50.00155]}},{"type":"Feature","properties":{"nr":"194","siedziba":"Szkoła Podstawowa Nr 97","ulica":"DOKTORA JUDYMA","nrBud":"10"},"geometry":{"type":"Point","coordinates":[19.91879,50.00146]}},{"type":"Feature","properties":{"nr":"195","siedziba":"Szkoła Podstawowa Nr 97","ulica":"DOKTORA JUDYMA","nrBud":"10"},"geometry":{"type":"Point","coordinates":[19.91879,50.00137]}},{"type":"Feature","properties":{"nr":"196","siedziba":"Szkoła Podstawowa Nr 14","ulica":"PROFESORA WOJCIECHA MARII BARTLA","nrBud":"29"},"geometry":{"type":"Point","coordinates":[19.89604,49.998]}},{"type":"Feature","properties":{"nr":"197","siedziba":"Szkoła Podstawowa Nr 14","ulica":"PROFESORA WOJCIECHA MARII BARTLA","nrBud":"29"},"geometry":{"type":"Point","coordinates":[19.89604,49.99791]}},{"type":"Feature","properties":{"nr":"198","siedziba":"Szkoła Podstawowa Nr 134","ulica":"KŁUSZYŃSKA","nrBud":"46"},"geometry":{"type":"Point","coordinates":[19.91317,49.99109]}},{"type":"Feature","properties":{"nr":"199","siedziba":"Szkoła Podstawowa Nr 134","ulica":"KŁUSZYŃSKA","nrBud":"46"},"geometry":{"type":"Point","coordinates":[19.91317,49.991]}},{"type":"Feature","properties":{"nr":"200","siedziba":"Oddziały Szkoły Podstawowej Nr 97","ulica":"ARMII \"KRAKÓW\"","nrBud":"76"},"geometry":{"type":"Point","coordinates":[19.92513,50.00131]}},{"type":"Feature","properties":{"nr":"201","siedziba":"Szkoła Podstawowa Nr 43","ulica":"MYŚLENICKA","nrBud":"112"},"geometry":{"type":"Point","coordinates":[19.94696,49.99334]}},{"type":"Feature","properties":{"nr":"202","siedziba":"Szkoła Podstawowa Nr 43","ulica":"MYŚLENICKA","nrBud":"112"},"geometry":{"type":"Point","coordinates":[19.94696,49.99325]}},{"type":"Feature","properties":{"nr":"203","siedziba":"Zespół Szkolno-Przedszkolny Nr 13","ulica":"MIRTOWA","nrBud":"2"},"geometry":{"type":"Point","coordinates":[19.94585,49.98426]}},{"type":"Feature","properties":{"nr":"204","siedziba":"Centrum Kultury Podgórza Klub Wróblowice","ulica":"HENRYKA NIEWODNICZAŃSKIEGO","nrBud":"74"},"geometry":{"type":"Point","coordinates":[19.94974,49.9794]}},{"type":"Feature","properties":{"nr":"205","siedziba":"Ochotnicza Straż Pożarna Zbydniowice","ulica":"MATEMATYKÓW KRAKOWSKICH","nrBud":"102"},"geometry":{"type":"Point","coordinates":[19.96041,49.97353]}},{"type":"Feature","properties":{"nr":"206","siedziba":"Szkoła Podstawowa \"Rajska Szkoła\"","ulica":"TUCHOWSKA","nrBud":"113"},"geometry":{"type":"Point","coordinates":[19.97187,49.99126]}},{"type":"Feature","properties":{"nr":"207","siedziba":"Centrum Kultury Podgórza Klub Soboniowice","ulica":"JERZEGO KURYŁOWICZA","nrBud":"115"},"geometry":{"type":"Point","coordinates":[19.98614,49.9833]}},{"type":"Feature","properties":{"nr":"208","siedziba":"Publiczne Rajskie Przedszkole","ulica":"JANA IZYDORA SZTAUDYNGERA","nrBud":"5"},"geometry":{"type":"Point","coordinates":[19.98808,49.99478]}},{"type":"Feature","properties":{"nr":"209","siedziba":"Samorządowe Przedszkole Nr 33","ulica":"RŻĄCKA","nrBud":"1"},"geometry":{"type":"Point","coordinates":[19.98318,50.00619]}},{"type":"Feature","properties":{"nr":"210","siedziba":"Zespół Szkół Odzieżowych Nr 1","ulica":"CECHOWA","nrBud":"57"},"geometry":{"type":"Point","coordinates":[19.96573,50.00618]}},{"type":"Feature","properties":{"nr":"211","siedziba":"Zespół Szkół Odzieżowych Nr 1","ulica":"CECHOWA","nrBud":"57"},"geometry":{"type":"Point","coordinates":[19.96573,50.00609]}},{"type":"Feature","properties":{"nr":"212","siedziba":"Zespół Szkół Odzieżowych Nr 1","ulica":"CECHOWA","nrBud":"57"},"geometry":{"type":"Point","coordinates":[19.96574,50.006]}},{"type":"Feature","properties":{"nr":"213","siedziba":"Szkoła Podstawowa z Oddziałami Integracyjnymi Nr 162","ulica":"STANISŁAWA STOJAŁOWSKIEGO","nrBud":"31"},"geometry":{"type":"Point","coordinates":[19.95382,50.00631]}},{"type":"Feature","properties":{"nr":"214","siedziba":"Szkoła Podstawowa z Oddziałami Integracyjnymi Nr 162","ulica":"STANISŁAWA STOJAŁOWSKIEGO","nrBud":"31"},"geometry":{"type":"Point","coordinates":[19.95383,50.00622]}},{"type":"Feature","properties":{"nr":"215","siedziba":"Szkoła Podstawowa z Oddziałami Integracyjnymi Nr 162","ulica":"STANISŁAWA STOJAŁOWSKIEGO","nrBud":"31"},"geometry":{"type":"Point","coordinates":[19.95383,50.00613]}},{"type":"Feature","properties":{"nr":"216","siedziba":"Szkoła Podstawowa z Oddziałami Integracyjnymi Nr 162","ulica":"STANISŁAWA STOJAŁOWSKIEGO","nrBud":"31"},"geometry":{"type":"Point","coordinates":[19.95383,50.00604]}},{"type":"Feature","properties":{"nr":"217","siedziba":"Szkoła Podstawowa Nr 149","ulica":"FRANCISZKA BUJAKA","nrBud":"15"},"geometry":{"type":"Point","coordinates":[19.95142,50.01029]}},{"type":"Feature","properties":{"nr":"218","siedziba":"Szkoła Podstawowa Nr 149","ulica":"FRANCISZKA BUJAKA","nrBud":"15"},"geometry":{"type":"Point","coordinates":[19.95142,50.0102]}},{"type":"Feature","properties":{"nr":"219","siedziba":"Szkoła Podstawowa Nr 149","ulica":"FRANCISZKA BUJAKA","nrBud":"15"},"geometry":{"type":"Point","coordinates":[19.95143,50.01011]}},{"type":"Feature","properties":{"nr":"220","siedziba":"Szkoła Podstawowa Nr 149","ulica":"FRANCISZKA BUJAKA","nrBud":"15"},"geometry":{"type":"Point","coordinates":[19.95143,50.01002]}},{"type":"Feature","properties":{"nr":"221","siedziba":"Szkoła Podstawowa Nr 149","ulica":"FRANCISZKA BUJAKA","nrBud":"15"},"geometry":{"type":"Point","coordinates":[19.95143,50.00993]}},{"type":"Feature","properties":{"nr":"222","siedziba":"Szkoła Podstawowa Nr 55","ulica":"DOBCZYCKA","nrBud":"20"},"geometry":{"type":"Point","coordinates":[19.9557,50.01674]}},{"type":"Feature","properties":{"nr":"223","siedziba":"Szkoła Podstawowa Nr 55","ulica":"DOBCZYCKA","nrBud":"20"},"geometry":{"type":"Point","coordinates":[19.9557,50.01665]}},{"type":"Feature","properties":{"nr":"224","siedziba":"Szkoła Podstawowa Nr 55","ulica":"DOBCZYCKA","nrBud":"20"},"geometry":{"type":"Point","coordinates":[19.9557,50.01656]}},{"type":"Feature","properties":{"nr":"225","siedziba":"Zarząd Infrastruktury Sportowej w Krakowie","ulica":"WALEREGO SŁAWKA","nrBud":"10"},"geometry":{"type":"Point","coordinates":[19.95673,50.02497]}},{"type":"Feature","properties":{"nr":"226","siedziba":"Szkoła Podstawowa im. Bł. Celiny Borzęckiej","ulica":"MALBORSKA","nrBud":"98"},"geometry":{"type":"Point","coordinates":[19.9654,50.02273]}},{"type":"Feature","properties":{"nr":"227","siedziba":"Szkoła Podstawowa im. Bł. Celiny Borzęckiej","ulica":"MALBORSKA","nrBud":"98"},"geometry":{"type":"Point","coordinates":[19.9654,50.02264]}},{"type":"Feature","properties":{"nr":"228","siedziba":"Szkoła Podstawowa im. Bł. Celiny Borzęckiej","ulica":"MALBORSKA","nrBud":"98"},"geometry":{"type":"Point","coordinates":[19.96541,50.02255]}},{"type":"Feature","properties":{"nr":"229","siedziba":"Zespół Szkół Elektrycznych Nr 1 Internat","ulica":"HENRYKA KAMIEŃSKIEGO","nrBud":"49A"},"geometry":{"type":"Point","coordinates":[19.97546,50.02473]}},{"type":"Feature","properties":{"nr":"230","siedziba":"Zespół Szkolno-Przedszkolny Nr 17","ulica":"CZARNOGÓRSKA","nrBud":"14"},"geometry":{"type":"Point","coordinates":[19.97093,50.01966]}},{"type":"Feature","properties":{"nr":"231","siedziba":"Zespół Szkolno-Przedszkolny Nr 17","ulica":"CZARNOGÓRSKA","nrBud":"14"},"geometry":{"type":"Point","coordinates":[19.97093,50.01957]}},{"type":"Feature","properties":{"nr":"232","siedziba":"Zespół Szkolno-Przedszkolny Nr 17","ulica":"CZARNOGÓRSKA","nrBud":"14"},"geometry":{"type":"Point","coordinates":[19.97093,50.01948]}},{"type":"Feature","properties":{"nr":"233","siedziba":"Zespół Szkolno-Przedszkolny Nr 17","ulica":"CZARNOGÓRSKA","nrBud":"14"},"geometry":{"type":"Point","coordinates":[19.97093,50.01939]}},{"type":"Feature","properties":{"nr":"234","siedziba":"Szkoła Podstawowa Nr 27","ulica":"PODEDWORZE","nrBud":"16"},"geometry":{"type":"Point","coordinates":[19.97472,50.01238]}},{"type":"Feature","properties":{"nr":"235","siedziba":"Szkoła Podstawowa Nr 27","ulica":"PODEDWORZE","nrBud":"16"},"geometry":{"type":"Point","coordinates":[19.97473,50.01229]}},{"type":"Feature","properties":{"nr":"236","siedziba":"Szkoła Podstawowa Nr 27","ulica":"PODEDWORZE","nrBud":"16"},"geometry":{"type":"Point","coordinates":[19.97473,50.0122]}},{"type":"Feature","properties":{"nr":"237","siedziba":"KOSTKA Publiczne Liceum Ogólnokształcące Jezuitów im. św. Stanisława Kostki","ulica":"SPÓŁDZIELCÓW","nrBud":"5"},"geometry":{"type":"Point","coordinates":[19.98069,50.01812]}},{"type":"Feature","properties":{"nr":"238","siedziba":"KOSTKA Publiczne Liceum Ogólnokształcące Jezuitów im. św. Stanisława Kostki","ulica":"SPÓŁDZIELCÓW","nrBud":"5"},"geometry":{"type":"Point","coordinates":[19.98069,50.01803]}},{"type":"Feature","properties":{"nr":"239","siedziba":"KOSTKA Publiczne Liceum Ogólnokształcące Jezuitów im. św. Stanisława Kostki","ulica":"SPÓŁDZIELCÓW","nrBud":"5"},"geometry":{"type":"Point","coordinates":[19.9807,50.01794]}},{"type":"Feature","properties":{"nr":"240","siedziba":"Szkoła Podstawowa Nr 123","ulica":"OKÓLNA","nrBud":"16"},"geometry":{"type":"Point","coordinates":[19.98159,50.01593]}},{"type":"Feature","properties":{"nr":"241","siedziba":"Szkoła Podstawowa Nr 123","ulica":"OKÓLNA","nrBud":"16"},"geometry":{"type":"Point","coordinates":[19.98159,50.01584]}},{"type":"Feature","properties":{"nr":"242","siedziba":"Szkoła Podstawowa Nr 123","ulica":"OKÓLNA","nrBud":"16"},"geometry":{"type":"Point","coordinates":[19.98159,50.01575]}},{"type":"Feature","properties":{"nr":"243","siedziba":"XV Liceum Ogólnokształcące","ulica":"ALEJA ADOLFA DYGASIŃSKIEGO","nrBud":"15"},"geometry":{"type":"Point","coordinates":[19.98613,50.02222]}},{"type":"Feature","properties":{"nr":"244","siedziba":"XV Liceum Ogólnokształcące","ulica":"ALEJA ADOLFA DYGASIŃSKIEGO","nrBud":"15"},"geometry":{"type":"Point","coordinates":[19.98613,50.02213]}},{"type":"Feature","properties":{"nr":"245","siedziba":"Szkoła Podstawowa Nr 61","ulica":"WACŁAWA POPŁAWSKIEGO","nrBud":"17"},"geometry":{"type":"Point","coordinates":[19.99023,50.0246]}},{"type":"Feature","properties":{"nr":"246","siedziba":"Szkoła Podstawowa Nr 61","ulica":"WACŁAWA POPŁAWSKIEGO","nrBud":"17"},"geometry":{"type":"Point","coordinates":[19.99023,50.02451]}},{"type":"Feature","properties":{"nr":"247","siedziba":"Młodzieżowy Dom Kultury","ulica":"NA WRZOSACH","nrBud":"57"},"geometry":{"type":"Point","coordinates":[19.99601,50.02092]}},{"type":"Feature","properties":{"nr":"248","siedziba":"Szkoła Podstawowa Nr 41","ulica":"ERAZMA JERZMANOWSKIEGO","nrBud":"6"},"geometry":{"type":"Point","coordinates":[20.00711,50.01838]}},{"type":"Feature","properties":{"nr":"249","siedziba":"Szkoła Podstawowa Nr 41","ulica":"ERAZMA JERZMANOWSKIEGO","nrBud":"6"},"geometry":{"type":"Point","coordinates":[20.00711,50.01829]}},{"type":"Feature","properties":{"nr":"250","siedziba":"Szkoła Podstawowa Nr 41","ulica":"ERAZMA JERZMANOWSKIEGO","nrBud":"6"},"geometry":{"type":"Point","coordinates":[20.00711,50.0182]}},{"type":"Feature","properties":{"nr":"251","siedziba":"Szkoła Podstawowa z Oddziałami Integracyjnymi Nr 148","ulica":"ŻABIA","nrBud":"20"},"geometry":{"type":"Point","coordinates":[19.99605,50.01724]}},{"type":"Feature","properties":{"nr":"252","siedziba":"Szkoła Podstawowa z Oddziałami Integracyjnymi Nr 148","ulica":"ŻABIA","nrBud":"20"},"geometry":{"type":"Point","coordinates":[19.99605,50.01715]}},{"type":"Feature","properties":{"nr":"253","siedziba":"Zespół Szkolno-Przedszkolny Nr 19","ulica":"JANA KURCZABA","nrBud":"15"},"geometry":{"type":"Point","coordinates":[20.00921,50.01353]}},{"type":"Feature","properties":{"nr":"254","siedziba":"Zespół Szkolno-Przedszkolny Nr 19","ulica":"JANA KURCZABA","nrBud":"15"},"geometry":{"type":"Point","coordinates":[20.00921,50.01344]}},{"type":"Feature","properties":{"nr":"255","siedziba":"Zespół Szkolno-Przedszkolny Nr 19","ulica":"JANA KURCZABA","nrBud":"15"},"geometry":{"type":"Point","coordinates":[20.00921,50.01335]}},{"type":"Feature","properties":{"nr":"256","siedziba":"Zespół Szkolno-Przedszkolny Nr 19","ulica":"JANA KURCZABA","nrBud":"15"},"geometry":{"type":"Point","coordinates":[20.00921,50.01326]}},{"type":"Feature","properties":{"nr":"257","siedziba":"Zespół Szkolno-Przedszkolny Nr 10","ulica":"LUDWIKA RYDYGIERA","nrBud":"20"},"geometry":{"type":"Point","coordinates":[20.00599,50.00636]}},{"type":"Feature","properties":{"nr":"258","siedziba":"Zespół Szkolno-Przedszkolny Nr 10","ulica":"LUDWIKA RYDYGIERA","nrBud":"20"},"geometry":{"type":"Point","coordinates":[20.00599,50.00627]}},{"type":"Feature","properties":{"nr":"259","siedziba":"Zespół Szkolno-Przedszkolny Nr 11","ulica":"ALEKSANDRY","nrBud":"17"},"geometry":{"type":"Point","coordinates":[20.01672,50.01259]}},{"type":"Feature","properties":{"nr":"260","siedziba":"Zespół Szkolno-Przedszkolny Nr 11","ulica":"ALEKSANDRY","nrBud":"17"},"geometry":{"type":"Point","coordinates":[20.01672,50.0125]}},{"type":"Feature","properties":{"nr":"261","siedziba":"Zespół Szkolno-Przedszkolny Nr 11","ulica":"ALEKSANDRY","nrBud":"17"},"geometry":{"type":"Point","coordinates":[20.01672,50.01241]}},{"type":"Feature","properties":{"nr":"262","siedziba":"Zespół Szkolno-Przedszkolny Nr 11","ulica":"ALEKSANDRY","nrBud":"17"},"geometry":{"type":"Point","coordinates":[20.01672,50.01232]}},{"type":"Feature","properties":{"nr":"263","siedziba":"XXV Liceum Ogólnokształcące","ulica":"TELIMENY","nrBud":"9"},"geometry":{"type":"Point","coordinates":[20.01614,50.01998]}},{"type":"Feature","properties":{"nr":"264","siedziba":"XXV Liceum Ogólnokształcące","ulica":"TELIMENY","nrBud":"9"},"geometry":{"type":"Point","coordinates":[20.01614,50.01989]}},{"type":"Feature","properties":{"nr":"265","siedziba":"Szkoła Podstawowa Nr 111","ulica":"BIEŻANOWSKA","nrBud":"204"},"geometry":{"type":"Point","coordinates":[20.02245,50.01903]}},{"type":"Feature","properties":{"nr":"266","siedziba":"Szkoła Podstawowa Nr 124","ulica":"FERDYNANDA WEIGLA","nrBud":"2"},"geometry":{"type":"Point","coordinates":[20.04089,50.0145]}},{"type":"Feature","properties":{"nr":"267","siedziba":"Szkoła Podstawowa Nr 124","ulica":"FERDYNANDA WEIGLA","nrBud":"2"},"geometry":{"type":"Point","coordinates":[20.0409,50.01441]}},{"type":"Feature","properties":{"nr":"268","siedziba":"Szkoła Podstawowa Nr 124","ulica":"FERDYNANDA WEIGLA","nrBud":"2"},"geometry":{"type":"Point","coordinates":[20.0409,50.01432]}},{"type":"Feature","properties":{"nr":"269","siedziba":"Szkoła Podstawowa nr 20","ulica":"AGATOWA","nrBud":"41"},"geometry":{"type":"Point","coordinates":[20.04478,50.02306]}},{"type":"Feature","properties":{"nr":"270","siedziba":"Szkoła Podstawowa nr 20","ulica":"AGATOWA","nrBud":"41"},"geometry":{"type":"Point","coordinates":[20.04478,50.02297]}},{"type":"Feature","properties":{"nr":"271","siedziba":"Szkoła Podstawowa Nr 137","ulica":"FELIKSA WROBELA","nrBud":"79"},"geometry":{"type":"Point","coordinates":[20.0659,50.04419]}},{"type":"Feature","properties":{"nr":"272","siedziba":"Zespół Szkolno-Przedszkolny Nr 21","ulica":"GOLIKÓWKA","nrBud":"52"},"geometry":{"type":"Point","coordinates":[20.03383,50.04592]}},{"type":"Feature","properties":{"nr":"273","siedziba":"Zespół Szkolno-Przedszkolny Nr 15","ulica":"SEWERYNA GOSZCZYŃSKIEGO","nrBud":"44"},"geometry":{"type":"Point","coordinates":[19.99225,50.03716]}},{"type":"Feature","properties":{"nr":"274","siedziba":"Zespół Szkolno-Przedszkolny Nr 15","ulica":"SEWERYNA GOSZCZYŃSKIEGO","nrBud":"44"},"geometry":{"type":"Point","coordinates":[19.99225,50.03707]}},{"type":"Feature","properties":{"nr":"275","siedziba":"Zespół Szkolno-Przedszkolny Nr 1","ulica":"MYŚLIWSKA","nrBud":"64"},"geometry":{"type":"Point","coordinates":[19.99247,50.04581]}},{"type":"Feature","properties":{"nr":"276","siedziba":"Zespół Szkolno-Przedszkolny Nr 1","ulica":"MYŚLIWSKA","nrBud":"64"},"geometry":{"type":"Point","coordinates":[19.99248,50.04572]}},{"type":"Feature","properties":{"nr":"277","siedziba":"Zespół Szkolno-Przedszkolny Nr 1","ulica":"MYŚLIWSKA","nrBud":"64"},"geometry":{"type":"Point","coordinates":[19.99248,50.04563]}},{"type":"Feature","properties":{"nr":"278","siedziba":"Zespół Szkolno-Przedszkolny Nr 1","ulica":"MYŚLIWSKA","nrBud":"64"},"geometry":{"type":"Point","coordinates":[19.99248,50.04554]}},{"type":"Feature","properties":{"nr":"279","siedziba":"Samorządowe Przedszkole Nr 11","ulica":"SASKA","nrBud":"11"},"geometry":{"type":"Point","coordinates":[19.98343,50.04341]}},{"type":"Feature","properties":{"nr":"280","siedziba":"Samorządowe Przedszkole Nr 11","ulica":"SASKA","nrBud":"11"},"geometry":{"type":"Point","coordinates":[19.98343,50.04332]}},{"type":"Feature","properties":{"nr":"281","siedziba":"Urząd Miasta Krakowa","ulica":"WIELICKA","nrBud":"28A"},"geometry":{"type":"Point","coordinates":[19.96631,50.03877]}},{"type":"Feature","properties":{"nr":"282","siedziba":"Przedsiębiorstwo KSTU Krakowskie CentrumTerapii Uzależnień","ulica":"WIELICKA","nrBud":"73"},"geometry":{"type":"Point","coordinates":[19.9681,50.03392]}},{"type":"Feature","properties":{"nr":"283","siedziba":"Szkoła Podstawowa Nr 29","ulica":"ALEJA EDWARDA DEMBOWSKIEGO","nrBud":"12"},"geometry":{"type":"Point","coordinates":[19.9551,50.0419]}},{"type":"Feature","properties":{"nr":"284","siedziba":"Zespół Szkół Mechanicznych Nr 2","ulica":"ALEJA GEN. JANA SKRZYNECKIEGO","nrBud":"12"},"geometry":{"type":"Point","coordinates":[19.93472,50.03348]}},{"type":"Feature","properties":{"nr":"285","siedziba":"Specjalny Ośrodek Szkolno-Wychowawczy Nr 2 im. J. Korczaka","ulica":"JANA ZAMOYSKIEGO","nrBud":"100"},"geometry":{"type":"Point","coordinates":[19.94268,50.03637]}},{"type":"Feature","properties":{"nr":"286","siedziba":"Szkoła Podstawowa Nr 26","ulica":"IGNACEGO KRASICKIEGO","nrBud":"34"},"geometry":{"type":"Point","coordinates":[19.93925,50.04015]}},{"type":"Feature","properties":{"nr":"287","siedziba":"Szkoła Podstawowa Nr 26","ulica":"IGNACEGO KRASICKIEGO","nrBud":"34"},"geometry":{"type":"Point","coordinates":[19.93925,50.04006]}},{"type":"Feature","properties":{"nr":"288","siedziba":"Urząd Miasta Krakowa","ulica":"RYNEK PODGÓRSKI","nrBud":"1"},"geometry":{"type":"Point","coordinates":[19.94986,50.04474]}},{"type":"Feature","properties":{"nr":"289","siedziba":"Szkoła Muzyczna I i II Stopnia","ulica":"JÓZEFIŃSKA","nrBud":"10"},"geometry":{"type":"Point","coordinates":[19.95001,50.04585]}},{"type":"Feature","properties":{"nr":"290","siedziba":"XLIII Liceum Ogólnokształcące","ulica":"BOLESŁAWA LIMANOWSKIEGO","nrBud":"60 - 62"},"geometry":{"type":"Point","coordinates":[19.95905,50.04347]}},{"type":"Feature","properties":{"nr":"291","siedziba":"XLIII Liceum Ogólnokształcące","ulica":"BOLESŁAWA LIMANOWSKIEGO","nrBud":"60 - 62"},"geometry":{"type":"Point","coordinates":[19.95905,50.04338]}},{"type":"Feature","properties":{"nr":"292","siedziba":"Urząd Miasta Krakowa","ulica":"ZABŁOCIE","nrBud":"22"},"geometry":{"type":"Point","coordinates":[19.96697,50.0502]}},{"type":"Feature","properties":{"nr":"293","siedziba":"Szkoła Podstawowa Nr 156","ulica":"CENTRALNA","nrBud":"39"},"geometry":{"type":"Point","coordinates":[20.01377,50.06909]}},{"type":"Feature","properties":{"nr":"294","siedziba":"Szkoła Podstawowa Nr 156","ulica":"CENTRALNA","nrBud":"39"},"geometry":{"type":"Point","coordinates":[20.01377,50.069]}},{"type":"Feature","properties":{"nr":"295","siedziba":"Szkoła Podstawowa Nr 156","ulica":"CENTRALNA","nrBud":"39"},"geometry":{"type":"Point","coordinates":[20.01377,50.06891]}},{"type":"Feature","properties":{"nr":"296","siedziba":"Szkoła Podstawowa Nr 156","ulica":"CENTRALNA","nrBud":"39"},"geometry":{"type":"Point","coordinates":[20.01377,50.06883]}},{"type":"Feature","properties":{"nr":"297","siedziba":"Szkoła Podstawowa Nr 103","ulica":"OS. KOLOROWE","nrBud":"29"},"geometry":{"type":"Point","coordinates":[20.02256,50.07597]}},{"type":"Feature","properties":{"nr":"298","siedziba":"Szkoła Podstawowa Nr 103","ulica":"OS. KOLOROWE","nrBud":"29"},"geometry":{"type":"Point","coordinates":[20.02256,50.07588]}},{"type":"Feature","properties":{"nr":"299","siedziba":"Zespół Szkół Nr 1","ulica":"UŁANÓW","nrBud":"3"},"geometry":{"type":"Point","coordinates":[19.98643,50.07446]}},{"type":"Feature","properties":{"nr":"300","siedziba":"Szkoła Podstawowa Nr 155","ulica":"OS. 2 PUŁKU LOTNICZEGO","nrBud":"21"},"geometry":{"type":"Point","coordinates":[20.00856,50.07904]}},{"type":"Feature","properties":{"nr":"301","siedziba":"Szkoła Podstawowa Nr 155","ulica":"OS. 2 PUŁKU LOTNICZEGO","nrBud":"21"},"geometry":{"type":"Point","coordinates":[20.00857,50.07895]}},{"type":"Feature","properties":{"nr":"302","siedziba":"Szkoła Podstawowa Nr 155","ulica":"OS. 2 PUŁKU LOTNICZEGO","nrBud":"21"},"geometry":{"type":"Point","coordinates":[20.00857,50.07886]}},{"type":"Feature","properties":{"nr":"303","siedziba":"Szkoła Podstawowa Nr 155","ulica":"OS. 2 PUŁKU LOTNICZEGO","nrBud":"21"},"geometry":{"type":"Point","coordinates":[20.00857,50.07877]}},{"type":"Feature","properties":{"nr":"304","siedziba":"XXX Liceum Ogólnokształcące","ulica":"OS. DYWIZJONU 303","nrBud":"66"},"geometry":{"type":"Point","coordinates":[20.00624,50.08365]}},{"type":"Feature","properties":{"nr":"305","siedziba":"XXX Liceum Ogólnokształcące","ulica":"OS. DYWIZJONU 303","nrBud":"66"},"geometry":{"type":"Point","coordinates":[20.00624,50.08356]}},{"type":"Feature","properties":{"nr":"306","siedziba":"XXX Liceum Ogólnokształcące","ulica":"OS. DYWIZJONU 303","nrBud":"66"},"geometry":{"type":"Point","coordinates":[20.00625,50.08347]}},{"type":"Feature","properties":{"nr":"307","siedziba":"XXX Liceum Ogólnokształcące","ulica":"OS. DYWIZJONU 303","nrBud":"66"},"geometry":{"type":"Point","coordinates":[20.00625,50.08338]}},{"type":"Feature","properties":{"nr":"308","siedziba":"XXX Liceum Ogólnokształcące","ulica":"OS. DYWIZJONU 303","nrBud":"66"},"geometry":{"type":"Point","coordinates":[20.00625,50.08329]}},{"type":"Feature","properties":{"nr":"309","siedziba":"Międzynarodowe Centrum Kształcenia","ulica":"STANISŁAWA SKARŻYŃSKIEGO","nrBud":"1"},"geometry":{"type":"Point","coordinates":[19.9964,50.08404]}},{"type":"Feature","properties":{"nr":"310","siedziba":"Zespół Szkolno-Przedszkolny Nr 5","ulica":"OS. OŚWIECENIA","nrBud":"30"},"geometry":{"type":"Point","coordinates":[19.98985,50.09038]}},{"type":"Feature","properties":{"nr":"311","siedziba":"Zespół Szkolno-Przedszkolny Nr 5","ulica":"OS. OŚWIECENIA","nrBud":"30"},"geometry":{"type":"Point","coordinates":[19.98986,50.09029]}},{"type":"Feature","properties":{"nr":"312","siedziba":"Zespół Szkolno-Przedszkolny Nr 5","ulica":"OS. OŚWIECENIA","nrBud":"30"},"geometry":{"type":"Point","coordinates":[19.98986,50.0902]}},{"type":"Feature","properties":{"nr":"313","siedziba":"Zespół Szkolno-Przedszkolny Nr 5","ulica":"OS. OŚWIECENIA","nrBud":"30"},"geometry":{"type":"Point","coordinates":[19.98986,50.09011]}},{"type":"Feature","properties":{"nr":"314","siedziba":"Szkoła Podstawowa Nr 126","ulica":"OS. TYSIĄCLECIA","nrBud":"57"},"geometry":{"type":"Point","coordinates":[19.99926,50.09213]}},{"type":"Feature","properties":{"nr":"315","siedziba":"Szkoła Podstawowa Nr 126","ulica":"OS. TYSIĄCLECIA","nrBud":"57"},"geometry":{"type":"Point","coordinates":[19.99926,50.09204]}},{"type":"Feature","properties":{"nr":"316","siedziba":"Młodzieżowy Dom Kultury im. A. Bursy","ulica":"OS. TYSIĄCLECIA","nrBud":"15"},"geometry":{"type":"Point","coordinates":[20.00202,50.09141]}},{"type":"Feature","properties":{"nr":"317","siedziba":"Młodzieżowy Dom Kultury im. A. Bursy","ulica":"OS. TYSIĄCLECIA","nrBud":"15"},"geometry":{"type":"Point","coordinates":[20.00203,50.09132]}},{"type":"Feature","properties":{"nr":"318","siedziba":"Samorządowe Przedszkole Nr 177","ulica":"OS. KOMBATANTÓW","nrBud":"13"},"geometry":{"type":"Point","coordinates":[20.008,50.09265]}},{"type":"Feature","properties":{"nr":"319","siedziba":"Klub Kuźnia Ośrodka Kultury im. C. K. Norwida","ulica":"OS. ZŁOTEGO WIEKU","nrBud":"14"},"geometry":{"type":"Point","coordinates":[20.00136,50.09697]}},{"type":"Feature","properties":{"nr":"320","siedziba":"Klub Kuźnia Ośrodka Kultury im. C. K. Norwida","ulica":"OS. ZŁOTEGO WIEKU","nrBud":"14"},"geometry":{"type":"Point","coordinates":[20.00137,50.09688]}},{"type":"Feature","properties":{"nr":"321","siedziba":"Szkoła Podstawowa Nr 85","ulica":"OS. ZŁOTEGO WIEKU","nrBud":"4"},"geometry":{"type":"Point","coordinates":[19.99995,50.09764]}},{"type":"Feature","properties":{"nr":"322","siedziba":"Szkoła Podstawowa Nr 85","ulica":"OS. ZŁOTEGO WIEKU","nrBud":"4"},"geometry":{"type":"Point","coordinates":[19.99995,50.09755]}},{"type":"Feature","properties":{"nr":"323","siedziba":"Szkoła Podstawowa z Oddziałami Integracyjnymi Nr 77","ulica":"OS. ZŁOTEGO WIEKU","nrBud":"36"},"geometry":{"type":"Point","coordinates":[20.00368,50.09769]}},{"type":"Feature","properties":{"nr":"324","siedziba":"Szkoła Podstawowa z Oddziałami Integracyjnymi Nr 77","ulica":"OS. ZŁOTEGO WIEKU","nrBud":"36"},"geometry":{"type":"Point","coordinates":[20.00369,50.0976]}},{"type":"Feature","properties":{"nr":"325","siedziba":"Szkoła Podstawowa z Oddziałami Integracyjnymi Nr 144","ulica":"OS. BOHATERÓW WRZEŚNIA","nrBud":"13"},"geometry":{"type":"Point","coordinates":[20.00794,50.09808]}},{"type":"Feature","properties":{"nr":"326","siedziba":"Szkoła Podstawowa z Oddziałami Integracyjnymi Nr 144","ulica":"OS. BOHATERÓW WRZEŚNIA","nrBud":"13"},"geometry":{"type":"Point","coordinates":[20.00794,50.09799]}},{"type":"Feature","properties":{"nr":"327","siedziba":"Szkoła Podstawowa z Oddziałami Integracyjnymi Nr 144","ulica":"OS. BOHATERÓW WRZEŚNIA","nrBud":"13"},"geometry":{"type":"Point","coordinates":[20.00794,50.0979]}},{"type":"Feature","properties":{"nr":"328","siedziba":"Szkoła Podstawowa z Oddziałami Integracyjnymi Nr 144","ulica":"OS. BOHATERÓW WRZEŚNIA","nrBud":"13"},"geometry":{"type":"Point","coordinates":[20.00794,50.09781]}},{"type":"Feature","properties":{"nr":"329","siedziba":"Szkoła Podstawowa Nr 89","ulica":"OS. PIASTÓW","nrBud":"34A"},"geometry":{"type":"Point","coordinates":[20.01798,50.10001]}},{"type":"Feature","properties":{"nr":"330","siedziba":"Szkoła Podstawowa Nr 89","ulica":"OS. PIASTÓW","nrBud":"34A"},"geometry":{"type":"Point","coordinates":[20.01798,50.09992]}},{"type":"Feature","properties":{"nr":"331","siedziba":"Szkoła Podstawowa Nr 89","ulica":"OS. PIASTÓW","nrBud":"34A"},"geometry":{"type":"Point","coordinates":[20.01798,50.09983]}},{"type":"Feature","properties":{"nr":"332","siedziba":"Szkoła Podstawowa Nr 89","ulica":"OS. PIASTÓW","nrBud":"34A"},"geometry":{"type":"Point","coordinates":[20.01798,50.09974]}},{"type":"Feature","properties":{"nr":"333","siedziba":"Publiczne Salezjańskie Liceum Ogólnokształcące","ulica":"OS. PIASTÓW","nrBud":"34"},"geometry":{"type":"Point","coordinates":[20.01827,50.09878]}},{"type":"Feature","properties":{"nr":"334","siedziba":"Publiczne Salezjańskie Liceum Ogólnokształcące","ulica":"OS. PIASTÓW","nrBud":"34"},"geometry":{"type":"Point","coordinates":[20.01827,50.09869]}},{"type":"Feature","properties":{"nr":"335","siedziba":"Publiczne Salezjańskie Liceum Ogólnokształcące","ulica":"OS. PIASTÓW","nrBud":"34"},"geometry":{"type":"Point","coordinates":[20.01827,50.0986]}},{"type":"Feature","properties":{"nr":"336","siedziba":"Zespół Szkół Zawodowych Huty im. T. Sendzimira","ulica":"OS. ZŁOTEJ JESIENI","nrBud":"2"},"geometry":{"type":"Point","coordinates":[20.02341,50.09061]}},{"type":"Feature","properties":{"nr":"337","siedziba":"Zespół Szkół Zawodowych Huty im. T. Sendzimira","ulica":"OS. ZŁOTEJ JESIENI","nrBud":"2"},"geometry":{"type":"Point","coordinates":[20.02341,50.09052]}},{"type":"Feature","properties":{"nr":"338","siedziba":"Szkoła Podstawowa Nr 101","ulica":"OS. JAGIELLOŃSKIE","nrBud":"9"},"geometry":{"type":"Point","coordinates":[20.02358,50.08841]}},{"type":"Feature","properties":{"nr":"339","siedziba":"Szkoła Podstawowa Nr 101","ulica":"OS. JAGIELLOŃSKIE","nrBud":"9"},"geometry":{"type":"Point","coordinates":[20.02358,50.08832]}},{"type":"Feature","properties":{"nr":"340","siedziba":"Szkoła Podstawowa Nr 101","ulica":"OS. JAGIELLOŃSKIE","nrBud":"9"},"geometry":{"type":"Point","coordinates":[20.02359,50.08823]}},{"type":"Feature","properties":{"nr":"341","siedziba":"Szkoła Podstawowa Nr 101","ulica":"OS. JAGIELLOŃSKIE","nrBud":"9"},"geometry":{"type":"Point","coordinates":[20.02359,50.08814]}},{"type":"Feature","properties":{"nr":"342","siedziba":"III Liceum Ogólnokształcące","ulica":"OS. WYSOKIE","nrBud":"6"},"geometry":{"type":"Point","coordinates":[20.01827,50.08902]}},{"type":"Feature","properties":{"nr":"343","siedziba":"Szkoła Podstawowa Nr 104","ulica":"OS. WYSOKIE","nrBud":"7"},"geometry":{"type":"Point","coordinates":[20.01668,50.08934]}},{"type":"Feature","properties":{"nr":"344","siedziba":"Szkoła Podstawowa Nr 104","ulica":"OS. WYSOKIE","nrBud":"7"},"geometry":{"type":"Point","coordinates":[20.01668,50.08925]}},{"type":"Feature","properties":{"nr":"345","siedziba":"Szkoła Podstawowa Nr 82","ulica":"OS. KALINOWE","nrBud":"17"},"geometry":{"type":"Point","coordinates":[20.01253,50.09137]}},{"type":"Feature","properties":{"nr":"346","siedziba":"Szkoła Podstawowa Nr 82","ulica":"OS. KALINOWE","nrBud":"17"},"geometry":{"type":"Point","coordinates":[20.01254,50.09128]}},{"type":"Feature","properties":{"nr":"347","siedziba":"Szkoła Podstawowa Nr 92","ulica":"OS. JÓZEFA STRUSIA","nrBud":"19"},"geometry":{"type":"Point","coordinates":[20.00919,50.09023]}},{"type":"Feature","properties":{"nr":"348","siedziba":"Szkoła Podstawowa Nr 92","ulica":"OS. JÓZEFA STRUSIA","nrBud":"19"},"geometry":{"type":"Point","coordinates":[20.00919,50.09014]}},{"type":"Feature","properties":{"nr":"349","siedziba":"Publiczna Szkoła Podstawowa Sióstr Salezjanek im. Błogosławionej Laury Vicuna","ulica":"OS. KOŚCIUSZKOWSKIE","nrBud":"7"},"geometry":{"type":"Point","coordinates":[20.01332,50.08343]}},{"type":"Feature","properties":{"nr":"350","siedziba":"Szkoła Podstawowa Nr 100","ulica":"OS. ALBERTYŃSKIE","nrBud":"36"},"geometry":{"type":"Point","coordinates":[20.01962,50.08103]}},{"type":"Feature","properties":{"nr":"351","siedziba":"Szkoła Podstawowa Nr 100","ulica":"OS. ALBERTYŃSKIE","nrBud":"36"},"geometry":{"type":"Point","coordinates":[20.01962,50.08094]}},{"type":"Feature","properties":{"nr":"352","siedziba":"Szkoła Podstawowa Nr 100","ulica":"OS. ALBERTYŃSKIE","nrBud":"36"},"geometry":{"type":"Point","coordinates":[20.01963,50.08085]}},{"type":"Feature","properties":{"nr":"353","siedziba":"Szkoła Podstawowa im. Bogdana Jańskiego w Krakowie","ulica":"OS. NIEPODLEGŁOŚCI","nrBud":"19"},"geometry":{"type":"Point","coordinates":[20.02084,50.07987]}},{"type":"Feature","properties":{"nr":"354","siedziba":"Szkoła Podstawowa im. Bogdana Jańskiego w Krakowie","ulica":"OS. NIEPODLEGŁOŚCI","nrBud":"19"},"geometry":{"type":"Point","coordinates":[20.02084,50.07978]}},{"type":"Feature","properties":{"nr":"355","siedziba":"Szkoła Podstawowa Nr 86","ulica":"OS. JAGIELLOŃSKIE","nrBud":"18"},"geometry":{"type":"Point","coordinates":[20.02753,50.08502]}},{"type":"Feature","properties":{"nr":"356","siedziba":"Szkoła Podstawowa Nr 86","ulica":"OS. JAGIELLOŃSKIE","nrBud":"18"},"geometry":{"type":"Point","coordinates":[20.02753,50.08493]}},{"type":"Feature","properties":{"nr":"357","siedziba":"Szkoła Podstawowa Nr 86","ulica":"OS. JAGIELLOŃSKIE","nrBud":"18"},"geometry":{"type":"Point","coordinates":[20.02753,50.08484]}},{"type":"Feature","properties":{"nr":"358","siedziba":"Zespół Szkół Gastronomicznych Nr 1","ulica":"OS. ZŁOTEJ JESIENI","nrBud":"16"},"geometry":{"type":"Point","coordinates":[20.03068,50.08407]}},{"type":"Feature","properties":{"nr":"359","siedziba":"Zespół Szkół Gastronomicznych Nr 1","ulica":"OS. ZŁOTEJ JESIENI","nrBud":"16"},"geometry":{"type":"Point","coordinates":[20.03068,50.08398]}},{"type":"Feature","properties":{"nr":"360","siedziba":"Oddziały Szkoły Podstawowej Nr 129","ulica":"OS. NA STOKU","nrBud":"34"},"geometry":{"type":"Point","coordinates":[20.05246,50.09521]}},{"type":"Feature","properties":{"nr":"361","siedziba":"Oddziały Szkoły Podstawowej Nr 129","ulica":"OS. NA STOKU","nrBud":"34"},"geometry":{"type":"Point","coordinates":[20.05246,50.09512]}},{"type":"Feature","properties":{"nr":"362","siedziba":"Oddziały Szkoły Podstawowej Nr 129","ulica":"OS. NA STOKU","nrBud":"34"},"geometry":{"type":"Point","coordinates":[20.05246,50.09504]}},{"type":"Feature","properties":{"nr":"363","siedziba":"Szkoła Podstawowa z Oddziałami Integracyjnymi Nr 98","ulica":"OS. NA STOKU","nrBud":"52"},"geometry":{"type":"Point","coordinates":[20.05539,50.09204]}},{"type":"Feature","properties":{"nr":"364","siedziba":"Szkoła Podstawowa Nr 129","ulica":"OS. NA WZGÓRZACH","nrBud":"13A"},"geometry":{"type":"Point","coordinates":[20.06013,50.09741]}},{"type":"Feature","properties":{"nr":"365","siedziba":"Szkoła Podstawowa Nr 129","ulica":"OS. NA WZGÓRZACH","nrBud":"13A"},"geometry":{"type":"Point","coordinates":[20.06014,50.09732]}},{"type":"Feature","properties":{"nr":"366","siedziba":"Ośrodek Kultury Kraków-Nowa Huta, Klub Zakole","ulica":"ZAKOLE","nrBud":"31"},"geometry":{"type":"Point","coordinates":[20.05798,50.11243]}},{"type":"Feature","properties":{"nr":"367","siedziba":"Ośrodek Kultury Kraków Nowa Huta Klub Dukat","ulica":"STYCZNA","nrBud":"1"},"geometry":{"type":"Point","coordinates":[20.07349,50.09958]}},{"type":"Feature","properties":{"nr":"368","siedziba":"Szkoła Podstawowa Nr 78","ulica":"JASKROWA","nrBud":"5"},"geometry":{"type":"Point","coordinates":[20.12358,50.09987]}},{"type":"Feature","properties":{"nr":"369","siedziba":"Oddziały Szkoły Podstawowej Nr 78","ulica":"ŁUCZANOWICKA","nrBud":"2A"},"geometry":{"type":"Point","coordinates":[20.09444,50.09565]}},{"type":"Feature","properties":{"nr":"370","siedziba":"Ośrodek Kultury Kraków Nowa Huta Klub Krzesławice","ulica":"MELCHIORA WAŃKOWICZA","nrBud":"17"},"geometry":{"type":"Point","coordinates":[20.05669,50.08059]}},{"type":"Feature","properties":{"nr":"371","siedziba":"Młodzieżowy Dom Kultury im. J. Korczaka","ulica":"OS. SZKOLNE","nrBud":"5"},"geometry":{"type":"Point","coordinates":[20.0475,50.07562]}},{"type":"Feature","properties":{"nr":"372","siedziba":"Zespół Szkół Elektrycznych Nr 2","ulica":"OS. SZKOLNE","nrBud":"26"},"geometry":{"type":"Point","coordinates":[20.04895,50.0775]}},{"type":"Feature","properties":{"nr":"373","siedziba":"Szkoła Podstawowa Nr 88","ulica":"OS. SZKLANE DOMY","nrBud":"2"},"geometry":{"type":"Point","coordinates":[20.04161,50.07594]}},{"type":"Feature","properties":{"nr":"374","siedziba":"Rada i Zarząd Dzielnicy XVIII","ulica":"OS. CENTRUM B","nrBud":"6"},"geometry":{"type":"Point","coordinates":[20.0405,50.07413]}},{"type":"Feature","properties":{"nr":"375","siedziba":"Szkoła Podstawowa z Oddziałami Integracyjnymi Nr 105","ulica":"OS. SŁONECZNE","nrBud":"12"},"geometry":{"type":"Point","coordinates":[20.04198,50.07806]}},{"type":"Feature","properties":{"nr":"376","siedziba":"Zespół Szkół Zawodowych Nr 2","ulica":"OS. SZKOLNE","nrBud":"18"},"geometry":{"type":"Point","coordinates":[20.04738,50.07984]}},{"type":"Feature","properties":{"nr":"377","siedziba":"Publiczne Liceum Ogólnokształcące im. Królowej Apostołów w Krakowie","ulica":"BULWAROWA","nrBud":"33"},"geometry":{"type":"Point","coordinates":[20.04694,50.0818]}},{"type":"Feature","properties":{"nr":"378","siedziba":"Szkoła Podstawowa im. św. Wincentego Pallottiego","ulica":"OS. KRAKOWIAKÓW","nrBud":"47"},"geometry":{"type":"Point","coordinates":[20.04003,50.0817]}},{"type":"Feature","properties":{"nr":"379","siedziba":"Szkoła Podstawowa im. św. Wincentego Pallottiego","ulica":"OS. KRAKOWIAKÓW","nrBud":"47"},"geometry":{"type":"Point","coordinates":[20.04003,50.08161]}},{"type":"Feature","properties":{"nr":"380","siedziba":"Ośrodek Kultury im. C. K. Norwida","ulica":"OS. GÓRALI","nrBud":"5"},"geometry":{"type":"Point","coordinates":[20.03637,50.07976]}},{"type":"Feature","properties":{"nr":"381","siedziba":"Zespół Szkół Ogólnokształcących Sportowych Nr 2","ulica":"OS. TEATRALNE","nrBud":"35"},"geometry":{"type":"Point","coordinates":[20.03419,50.08003]}},{"type":"Feature","properties":{"nr":"382","siedziba":"Zespół Szkół Ogólnokształcących Sportowych Nr 2","ulica":"OS. TEATRALNE","nrBud":"35"},"geometry":{"type":"Point","coordinates":[20.03419,50.07994]}},{"type":"Feature","properties":{"nr":"383","siedziba":"XI Liceum Ogólnokształcące","ulica":"OS. TEATRALNE","nrBud":"33"},"geometry":{"type":"Point","coordinates":[20.03249,50.08074]}},{"type":"Feature","properties":{"nr":"384","siedziba":"Zespół Szkół Ekonomicznych Nr 2","ulica":"OS. SPÓŁDZIELCZE","nrBud":"6"},"geometry":{"type":"Point","coordinates":[20.02523,50.07765]}},{"type":"Feature","properties":{"nr":"385","siedziba":"Szkoła Podstawowa Nr 103","ulica":"OS. KOLOROWE","nrBud":"29"},"geometry":{"type":"Point","coordinates":[20.02256,50.07579]}},{"type":"Feature","properties":{"nr":"386","siedziba":"Szkoła Podstawowa Nr 103","ulica":"OS. KOLOROWE","nrBud":"29"},"geometry":{"type":"Point","coordinates":[20.02256,50.0757]}},{"type":"Feature","properties":{"nr":"387","siedziba":"Szkoła Podstawowa Nr 91","ulica":"OS. HANDLOWE","nrBud":"4"},"geometry":{"type":"Point","coordinates":[20.03088,50.07395]}},{"type":"Feature","properties":{"nr":"388","siedziba":"Szkoła Podstawowa Nr 91","ulica":"OS. HANDLOWE","nrBud":"4"},"geometry":{"type":"Point","coordinates":[20.03088,50.07386]}},{"type":"Feature","properties":{"nr":"389","siedziba":"Szkoła Podstawowa Nr 91","ulica":"OS. HANDLOWE","nrBud":"4"},"geometry":{"type":"Point","coordinates":[20.03088,50.07377]}},{"type":"Feature","properties":{"nr":"390","siedziba":"Szkoła Podstawowa Nr 91","ulica":"OS. HANDLOWE","nrBud":"4"},"geometry":{"type":"Point","coordinates":[20.03088,50.07368]}},{"type":"Feature","properties":{"nr":"391","siedziba":"Ośrodek Kultury Kraków Nowa Huta Klub „Jędruś”","ulica":"OS. CENTRUM A","nrBud":"6A"},"geometry":{"type":"Point","coordinates":[20.0418,50.07261]}},{"type":"Feature","properties":{"nr":"392","siedziba":"Szkoła Podstawowa Nr 80","ulica":"OS. NA SKARPIE","nrBud":"8"},"geometry":{"type":"Point","coordinates":[20.04297,50.0699]}},{"type":"Feature","properties":{"nr":"393","siedziba":"Szkoła Podstawowa Nr 80","ulica":"OS. NA SKARPIE","nrBud":"8"},"geometry":{"type":"Point","coordinates":[20.04297,50.06982]}},{"type":"Feature","properties":{"nr":"394","siedziba":"Szkoła Podstawowa Nr 80","ulica":"OS. NA SKARPIE","nrBud":"8"},"geometry":{"type":"Point","coordinates":[20.04297,50.06973]}},{"type":"Feature","properties":{"nr":"395","siedziba":"Szkoła Podstawowa Nr 80","ulica":"OS. NA SKARPIE","nrBud":"8"},"geometry":{"type":"Point","coordinates":[20.04297,50.06964]}},{"type":"Feature","properties":{"nr":"396","siedziba":"XVI Liceum Ogólnokształcące","ulica":"OS. WILLOWE","nrBud":"1"},"geometry":{"type":"Point","coordinates":[20.04684,50.07205]}},{"type":"Feature","properties":{"nr":"397","siedziba":"XVI Liceum Ogólnokształcące","ulica":"OS. WILLOWE","nrBud":"1"},"geometry":{"type":"Point","coordinates":[20.04684,50.07196]}},{"type":"Feature","properties":{"nr":"398","siedziba":"Szkoła Podstawowa Nr 37","ulica":"OS. STALOWE","nrBud":"18"},"geometry":{"type":"Point","coordinates":[20.05293,50.07331]}},{"type":"Feature","properties":{"nr":"399","siedziba":"Szkoła Podstawowa Nr 37","ulica":"OS. STALOWE","nrBud":"18"},"geometry":{"type":"Point","coordinates":[20.05293,50.07322]}},{"type":"Feature","properties":{"nr":"400","siedziba":"Zespół Szkół Specjalnych Nr 6","ulica":"TADEUSZA PTASZYCKIEGO","nrBud":"9"},"geometry":{"type":"Point","coordinates":[20.05528,50.06877]}},{"type":"Feature","properties":{"nr":"401","siedziba":"Towarzystwo Przyjaciół Ziemi Pleszowskiej Świetlica Osiedlowa","ulica":"NADBRZEZIE","nrBud":"18"},"geometry":{"type":"Point","coordinates":[20.11043,50.06936]}},{"type":"Feature","properties":{"nr":"402","siedziba":"Szkoła Podstawowa Nr 74","ulica":"BRANICKA","nrBud":"26"},"geometry":{"type":"Point","coordinates":[20.14236,50.05981]}},{"type":"Feature","properties":{"nr":"403","siedziba":"Zespół Szkolno-Przedszkolny Nr 9","ulica":"ROMANA PRAWOCHEŃSKIEGO","nrBud":"7"},"geometry":{"type":"Point","coordinates":[20.15719,50.06978]}},{"type":"Feature","properties":{"nr":"404","siedziba":"Szkoła Podstawowa Nr 141","ulica":"JÓZEFA SAWY-CALIŃSKIEGO","nrBud":"12"},"geometry":{"type":"Point","coordinates":[20.17854,50.09874]}},{"type":"Feature","properties":{"nr":"405","siedziba":"Szkoła Podstawowa Nr 142","ulica":"DROŻYSKA","nrBud":"13"},"geometry":{"type":"Point","coordinates":[20.19478,50.0556]}},{"type":"Feature","properties":{"nr":"406","siedziba":"Szkoła Podstawowa nr 14","ulica":"PROFESORA WOJCIECHA MARII BARTLA","nrBud":"29"},"geometry":{"type":"Point","coordinates":[19.89604,49.99782]}},{"type":"Feature","properties":{"nr":"407","siedziba":"Zespół Szkolno-Przedszkolny Nr 7","ulica":"SKOTNICKA","nrBud":"86"},"geometry":{"type":"Point","coordinates":[19.87379,50.01655]}},{"type":"Feature","properties":{"nr":"408","siedziba":"Szkoła Podstawowa nr 20","ulica":"AGATOWA","nrBud":"41"},"geometry":{"type":"Point","coordinates":[20.04478,50.02288]}},{"type":"Feature","properties":{"nr":"409","siedziba":"Szkoła Podstawowa Nr 50","ulica":"KATOWICKA","nrBud":"28"},"geometry":{"type":"Point","coordinates":[19.88198,50.08439]}},{"type":"Feature","properties":{"nr":"410","siedziba":"Szkoła Podstawowa Nr 155","ulica":"OS. 2 PUŁKU LOTNICZEGO","nrBud":"21"},"geometry":{"type":"Point","coordinates":[20.00857,50.07869]}},{"type":"Feature","properties":{"nr":"411","siedziba":"Ośrodek Kultury Kraków-Nowa Huta, Klub Zakole","ulica":"ZAKOLE","nrBud":"31"},"geometry":{"type":"Point","coordinates":[20.05799,50.11234]}},{"type":"Feature","properties":{"nr":"412","siedziba":"Szkoła Podstawowa Nr 67","ulica":"KACZORÓWKA","nrBud":"4"},"geometry":{"type":"Point","coordinates":[19.90579,50.10704]}},{"type":"Feature","properties":{"nr":"413","siedziba":"Bonifraterskie Centrum Medyczne sp. z o.o., Oddział w Krakowie, Szpital Zakonu Bonifratrów św. Jana Grandego w Krakowie","ulica":"TRYNITARSKA","nrBud":"11"},"geometry":{"type":"Point","coordinates":[19.94515,50.04753]}},{"type":"Feature","properties":{"nr":"414","siedziba":"Dom Pomocy Społecznej","ulica":"KRAKOWSKA","nrBud":"55"},"geometry":{"type":"Point","coordinates":[19.94368,50.04625]}},{"type":"Feature","properties":{"nr":"415","siedziba":"Narodowy Instytut Onkologii im. Marii Skłodowskiej-Curie - Państwowy Instytut Badawczy Oddział w Krakowie","ulica":"GARNCARSKA","nrBud":"11"},"geometry":{"type":"Point","coordinates":[19.92723,50.06144]}},{"type":"Feature","properties":{"nr":"416","siedziba":"Szpital Specjalistyczny im. J. Dietla w Krakowie","ulica":"SKARBOWA","nrBud":"1"},"geometry":{"type":"Point","coordinates":[19.92681,50.06349]}},{"type":"Feature","properties":{"nr":"418","siedziba":"Dom Pomocy Społecznej im. Ludwika i Anny Helclów w Krakowie","ulica":"HELCLÓW","nrBud":"2"},"geometry":{"type":"Point","coordinates":[19.93756,50.07253]}},{"type":"Feature","properties":{"nr":"419","siedziba":"Areszt Śledczy w Krakowie","ulica":"MONTELUPICH","nrBud":"7"},"geometry":{"type":"Point","coordinates":[19.93987,50.07388]}},{"type":"Feature","properties":{"nr":"420","siedziba":"Zakład Opiekuńczo-Leczniczy prowadzony przez Zgromadzenie Sióstr Felicjanek","ulica":"HUGONA KOŁŁĄTAJA","nrBud":"7"},"geometry":{"type":"Point","coordinates":[19.94942,50.06071]}},{"type":"Feature","properties":{"nr":"421","siedziba":"SP ZOZ Szpital Uniwersytecki w Krakowie","ulica":"MIKOŁAJA KOPERNIKA","nrBud":"23"},"geometry":{"type":"Point","coordinates":[19.95479,50.06351]}},{"type":"Feature","properties":{"nr":"422","siedziba":"Dom Pomocy Społecznej","ulica":"ROZRYWKA","nrBud":"1"},"geometry":{"type":"Point","coordinates":[19.98041,50.09564]}},{"type":"Feature","properties":{"nr":"423","siedziba":"Krakowski Szpital Specjalistyczny im. św. Jana Pawła II","ulica":"PRĄDNICKA","nrBud":"80"},"geometry":{"type":"Point","coordinates":[19.9388,50.09019]}},{"type":"Feature","properties":{"nr":"424","siedziba":"Szpital Miejski Specjalistyczny im. Gabriela Narutowicza w Krakowie","ulica":"PRĄDNICKA","nrBud":"35-37"},"geometry":{"type":"Point","coordinates":[19.93804,50.08301]}},{"type":"Feature","properties":{"nr":"425","siedziba":"Dom Pomocy Społecznej","ulica":"PIOTRA KLUZEKA","nrBud":"6"},"geometry":{"type":"Point","coordinates":[19.93508,50.09284]}},{"type":"Feature","properties":{"nr":"426","siedziba":"Zakład Opiekuńczo-Leczniczy BONA-MED Sp. z o. o.","ulica":"KSIĘDZA KAZIMIERZA SIEMASZKI","nrBud":"17CE"},"geometry":{"type":"Point","coordinates":[19.94032,50.08425]}},{"type":"Feature","properties":{"nr":"427","siedziba":"5 Wojskowy Szpital Kliniczny z Polikliniką SP ZOZ w Krakowie","ulica":"WROCŁAWSKA","nrBud":"1 - 3"},"geometry":{"type":"Point","coordinates":[19.93435,50.0752]}},{"type":"Feature","properties":{"nr":"428","siedziba":"SP ZOZ Ministerstwa Spraw Wewnętrznych i Administracji w Krakowie","ulica":"KRONIKARZA GALLA","nrBud":"25"},"geometry":{"type":"Point","coordinates":[19.91315,50.07191]}},{"type":"Feature","properties":{"nr":"429","siedziba":"Dom Studencki nr 1 Olimp","ulica":"ROSTAFIŃSKIEGO","nrBud":"9"},"geometry":{"type":"Point","coordinates":[19.90445,50.069]}},{"type":"Feature","properties":{"nr":"430","siedziba":"Dom Studencki \"Nawojka\"","ulica":"WŁADYSŁAWA REYMONTA","nrBud":"11"},"geometry":{"type":"Point","coordinates":[19.91826,50.06491]}},{"type":"Feature","properties":{"nr":"431","siedziba":"Dom Studencki Bydgoska","ulica":"BYDGOSKA","nrBud":"19"},"geometry":{"type":"Point","coordinates":[19.90969,50.07035]}},{"type":"Feature","properties":{"nr":"432","siedziba":"Szpital Specjalistyczny im. J. Dietla w Krakowie Małopolskie Centrum Reumatologii, Immunologii i Rehabilitacji","ulica":"AL. MARSZAŁKA FERDYNANDA FOCHA","nrBud":"33"},"geometry":{"type":"Point","coordinates":[19.9137,50.05753]}},{"type":"Feature","properties":{"nr":"433","siedziba":"Małopolski Szpital Ortopedyczno-Rehabilitacyjny im. prof. Bogusława Frańczuka","ulica":"AL. MODRZEWIOWA","nrBud":"22"},"geometry":{"type":"Point","coordinates":[19.86598,50.0637]}},{"type":"Feature","properties":{"nr":"434","siedziba":"Dom Pomocy Społecznej im. św. Jana Pawła II w Krakowie","ulica":"PRASKA","nrBud":"25"},"geometry":{"type":"Point","coordinates":[19.91248,50.04757]}},{"type":"Feature","properties":{"nr":"435","siedziba":"Dom Pomocy Społecznej w Krakowie","ulica":"PRASKA","nrBud":"27"},"geometry":{"type":"Point","coordinates":[19.91176,50.04729]}},{"type":"Feature","properties":{"nr":"436","siedziba":"Dom Pomocy Społecznej św. Brata Alberta","ulica":"ADOLFA NOWACZYŃSKIEGO","nrBud":"1"},"geometry":{"type":"Point","coordinates":[19.92043,50.04563]}},{"type":"Feature","properties":{"nr":"437","siedziba":"Dom Pomocy Społecznej Zgromadzenia Sióstr Służebniczek NMP NP","ulica":"PODGÓRKI TYNIECKIE","nrBud":"96"},"geometry":{"type":"Point","coordinates":[19.84153,50.01004]}},{"type":"Feature","properties":{"nr":"438","siedziba":"Dom Pomocy Społecznej","ulica":"DR. JÓZEFA BABIŃSKIEGO","nrBud":"25"},"geometry":{"type":"Point","coordinates":[19.88186,50.00656]}},{"type":"Feature","properties":{"nr":"439","siedziba":"Szpital Kliniczny im. dr. Józefa Babińskiego SPZOZ w Krakowie","ulica":"DR. JÓZEFA BABIŃSKIEGO","nrBud":"29"},"geometry":{"type":"Point","coordinates":[19.8883,50.0065]}},{"type":"Feature","properties":{"nr":"440","siedziba":"SCANMED S.A. Szpital św. Rafała","ulica":"ADAMA BOCHENKA","nrBud":"12"},"geometry":{"type":"Point","coordinates":[19.97544,50.01091]}},{"type":"Feature","properties":{"nr":"441","siedziba":"Miejskie Centrum Opieki dla Osób Starszych Przewlekle Niepełnosprawnych oraz Niesamodzielnych w Krakowie","ulica":"WIELICKA","nrBud":"267"},"geometry":{"type":"Point","coordinates":[20.00644,50.00969]}},{"type":"Feature","properties":{"nr":"442","siedziba":"SP ZOZ Szpital Uniwersytecki w Krakowie","ulica":"MACIEJA JAKUBOWSKIEGO","nrBud":"2"},"geometry":{"type":"Point","coordinates":[20.00076,50.00944]}},{"type":"Feature","properties":{"nr":"443","siedziba":"SP ZOZ Szpital Uniwersytecki w Krakowie","ulica":"MACIEJA JAKUBOWSKIEGO","nrBud":"2"},"geometry":{"type":"Point","coordinates":[20.00076,50.00935]}},{"type":"Feature","properties":{"nr":"444","siedziba":"SP ZOZ Szpital Uniwersytecki w Krakowie","ulica":"MACIEJA JAKUBOWSKIEGO","nrBud":"2"},"geometry":{"type":"Point","coordinates":[20.00076,50.00926]}},{"type":"Feature","properties":{"nr":"445","siedziba":"Dom Pomocy Społecznej Zakonu Przenajświętszej Trójcy","ulica":"ŁANOWA","nrBud":"1B"},"geometry":{"type":"Point","coordinates":[19.98639,50.03515]}},{"type":"Feature","properties":{"nr":"446","siedziba":"Dom Pomocy Społecznej","ulica":"ŁANOWA","nrBud":"39"},"geometry":{"type":"Point","coordinates":[19.99231,50.03889]}},{"type":"Feature","properties":{"nr":"447","siedziba":"Dom Pomocy Społecznej","ulica":"ŁANOWA","nrBud":"41"},"geometry":{"type":"Point","coordinates":[19.99316,50.03891]}},{"type":"Feature","properties":{"nr":"448","siedziba":"Szpital Specjalistyczny im. Ludwika Rydygiera w Krakowie Sp. z o. o.","ulica":"OS. ZŁOTEJ JESIENI","nrBud":"1"},"geometry":{"type":"Point","coordinates":[20.01927,50.0921]}},{"type":"Feature","properties":{"nr":"449","siedziba":"Szpital Specjalistyczny im. Ludwika Rydygiera w Krakowie Sp. z o. o.","ulica":"OS. ZŁOTEJ JESIENI","nrBud":"1"},"geometry":{"type":"Point","coordinates":[20.01927,50.09201]}},{"type":"Feature","properties":{"nr":"450","siedziba":"Serdeczna Troska Sp. z o.o. Zakład Opiekuńczo-Leczniczy w Krakowie","ulica":"OS. ZŁOTEJ JESIENI","nrBud":"5"},"geometry":{"type":"Point","coordinates":[20.02535,50.0912]}},{"type":"Feature","properties":{"nr":"451","siedziba":"Areszt Śledczy w Krakowie Oddział Zewnętrzny w Krakowie-Nowej Hucie","ulica":"SPŁAWY","nrBud":"2"},"geometry":{"type":"Point","coordinates":[20.1345,50.09177]}},{"type":"Feature","properties":{"nr":"452","siedziba":"Dom Pomocy Społecznej","ulica":"OS. SPORTOWE","nrBud":"9"},"geometry":{"type":"Point","coordinates":[20.04556,50.08104]}},{"type":"Feature","properties":{"nr":"453","siedziba":"Dom Pomocy Społecznej","ulica":"OS. SZKOLNE","nrBud":"28"},"geometry":{"type":"Point","coordinates":[20.04865,50.07708]}},{"type":"Feature","properties":{"nr":"454","siedziba":"Centrum Medyczne Ujastek Sp. z o.o.","ulica":"UJASTEK","nrBud":"3"},"geometry":{"type":"Point","coordinates":[20.06839,50.08114]}},{"type":"Feature","properties":{"nr":"455","siedziba":"Szpital Specjalistyczny im. Stefana Żeromskiego SP ZOZ w Krakowie","ulica":"OS. NA SKARPIE","nrBud":"66"},"geometry":{"type":"Point","coordinates":[20.04616,50.06578]}},{"type":"Feature","properties":{"nr":"456","siedziba":"Serdeczna Troska Sp. z o.o. Zakład Opiekuńczo-Leczniczy w Krakowie","ulica":"RZEPAKOWA","nrBud":"5A"},"geometry":{"type":"Point","coordinates":[20.1517,50.07378]}}]}