{"type":"FeatureCollection","features":[{"type":"Feature","properties":{"obwody":["253","254","255","256"],"siedziba":"Zespół Szkolno-Przedszkolny Nr 19","ulica":"JANA KURCZABA","nrBud":"15"},"geometry":{"type":"Point","coordinates":[20.00921,50.0134]}},{"type":"Feature","properties":{"obwody":["48"],"siedziba":"Szkoła Muzyczna I Stopnia Nr 1","ulica":"PILOTÓW","nrBud":"51"},"geometry":{"type":"Point","coordinates":[19.97357,50.0801]}},{"type":"Feature","properties":{"obwody":["46","47"],"siedziba":"Zespół Szkół Ogólnokształcących Nr 9","ulica":"SENIORÓW LOTNICTWA","nrBud":"5"},"geometry":{"type":"Point","coordinates":[19.98611,50.07944]}},{"type":"Feature","properties":{"obwody":["42","43"],"siedziba":"Szkoła Podstawowa Nr 114","ulica":"ŁĄKOWA","nrBud":"31"},"geometry":{"type":"Point","coordinates":[19.98426,50.07384]}},{"type":"Feature","properties":{"obwody":["44","45","299"],"siedziba":"Zespół Szkół Nr 1","ulica":"UŁANÓW","nrBud":"3"},"geometry":{"type":"Point","coordinates":[19.98643,50.07455]}},{"type":"Feature","properties":{"obwody":["321","322"],"siedziba":"Szkoła Podstawowa Nr 85","ulica":"OS. ZŁOTEGO WIEKU","nrBud":"4"},"geometry":{"type":"Point","coordinates":[19.99995,50.0976]}},{"type":"Feature","properties":{"obwody":["319","320"],"siedziba":"Klub Kuźnia Ośrodka Kultury im. C. K. Norwida","ulica":"OS. ZŁOTEGO WIEKU","nrBud":"14"},"geometry":{"type":"Point","coordinates":[20.00136,50.09692]}},{"type":"Feature","properties":{"obwody":["314","315"],"siedziba":"Szkoła Podstawowa Nr 126","ulica":"OS. TYSIĄCLECIA","nrBud":"57"},"geometry":{"type":"Point","coordinates":[19.99926,50.09208]}},{"type":"Feature","properties":{"obwody":["316","317"],"siedziba":"Młodzieżowy Dom Kultury im. A. Bursy","ulica":"OS. TYSIĄCLECIA","nrBud":"15"},"geometry":{"type":"Point","coordinates":[20.00203,50.09137]}},{"type":"Feature","properties":{"obwody":["325","326","327","328"],"siedziba":"Szkoła Podstawowa z Oddziałami Integracyjnymi Nr 144","ulica":"OS. BOHATERÓW WRZEŚNIA","nrBud":"13"},"geometry":{"type":"Point","coordinates":[20.00794,50.09794]}},{"type":"Feature","properties":{"obwody":["318"],"siedziba":"Samorządowe Przedszkole Nr 177","ulica":"OS. KOMBATANTÓW","nrBud":"13"},"geometry":{"type":"Point","coordinates":[20.008,50.09265]}},{"type":"Feature","properties":{"obwody":["329","330","331","332"],"siedziba":"Szkoła Podstawowa Nr 89","ulica":"OS. PIASTÓW","nrBud":"34A"},"geometry":{"type":"Point","coordinates":[20.01798,50.09987]}},{"type":"Feature","properties":{"obwody":["333","334","335"],"siedziba":"Publiczne Salezjańskie Liceum Ogólnokształcące","ulica":"OS. PIASTÓW","nrBud":"34"},"geometry":{"type":"Point","coordinates":[20.01827,50.09869]}},{"type":"Feature","properties":{"obwody":["237","238","239"],"siedziba":"KOSTKA Publiczne Liceum Ogólnokształcące Jezuitów im. św. Stanisława Kostki","ulica":"SPÓŁDZIELCÓW","nrBud":"5"},"geometry":{"type":"Point","coordinates":[19.98069,50.01803]}},{"type":"Feature","properties":{"obwody":["240","241","242"],"siedziba":"Szkoła Podstawowa Nr 123","ulica":"OKÓLNA","nrBud":"16"},"geometry":{"type":"Point","coordinates":[19.98159,50.01584]}},{"type":"Feature","properties":{"obwody":["209"],"siedziba":"Samorządowe Przedszkole Nr 33","ulica":"RŻĄCKA","nrBud":"1"},"geometry":{"type":"Point","coordinates":[19.98318,50.00619]}},{"type":"Feature","properties":{"obwody":["187","188"],"siedziba":"Szkoła Podstawowa Nr 56","ulica":"ALEKSANDRA FREDRY","nrBud":"65"},"geometry":{"type":"Point","coordinates":[19.94236,50.02106]}},{"type":"Feature","properties":{"obwody":["243","244"],"siedziba":"XV Liceum Ogólnokształcące","ulica":"ALEJA ADOLFA DYGASIŃSKIEGO","nrBud":"15"},"geometry":{"type":"Point","coordinates":[19.98613,50.02218]}},{"type":"Feature","properties":{"obwody":["251","252"],"siedziba":"Szkoła Podstawowa z Oddziałami Integracyjnymi Nr 148","ulica":"ŻABIA","nrBud":"20"},"geometry":{"type":"Point","coordinates":[19.99605,50.0172]}},{"type":"Feature","properties":{"obwody":["247"],"siedziba":"Młodzieżowy Dom Kultury","ulica":"NA WRZOSACH","nrBud":"57"},"geometry":{"type":"Point","coordinates":[19.99601,50.02092]}},{"type":"Feature","properties":{"obwody":["117"],"siedziba":"Szkoła Podstawowa Nr 33","ulica":"STANISŁAWA KONARSKIEGO","nrBud":"2"},"geometry":{"type":"Point","coordinates":[19.92037,50.06738]}},{"type":"Feature","properties":{"obwody":["213","214","215","216"],"siedziba":"Szkoła Podstawowa z Oddziałami Integracyjnymi Nr 162","ulica":"STANISŁAWA STOJAŁOWSKIEGO","nrBud":"31"},"geometry":{"type":"Point","coordinates":[19.95383,50.00617]}},{"type":"Feature","properties":{"obwody":["192"],"siedziba":"Przedszkole Samorządowe nr 95","ulica":"KOŚCIUSZKOWCÓW","nrBud":"6"},"geometry":{"type":"Point","coordinates":[19.92602,50.01623]}},{"type":"Feature","properties":{"obwody":["286","287"],"siedziba":"Szkoła Podstawowa Nr 26","ulica":"IGNACEGO KRASICKIEGO","nrBud":"34"},"geometry":{"type":"Point","coordinates":[19.93925,50.0401]}},{"type":"Feature","properties":{"obwody":["205"],"siedziba":"Ochotnicza Straż Pożarna Zbydniowice","ulica":"MATEMATYKÓW KRAKOWSKICH","nrBud":"102"},"geometry":{"type":"Point","coordinates":[19.96041,49.97353]}},{"type":"Feature","properties":{"obwody":["208"],"siedziba":"Publiczne Rajskie Przedszkole","ulica":"JANA IZYDORA SZTAUDYNGERA","nrBud":"5"},"geometry":{"type":"Point","coordinates":[19.98808,49.99478]}},{"type":"Feature","properties":{"obwody":["275","276","277","278"],"siedziba":"Zespół Szkolno-Przedszkolny Nr 1","ulica":"MYŚLIWSKA","nrBud":"64"},"geometry":{"type":"Point","coordinates":[19.99248,50.04568]}},{"type":"Feature","properties":{"obwody":["420"],"siedziba":"Zakład Opiekuńczo-Leczniczy prowadzony przez Zgromadzenie Sióstr Felicjanek","ulica":"HUGONA KOŁŁĄTAJA","nrBud":"7"},"geometry":{"type":"Point","coordinates":[19.94942,50.06071]}},{"type":"Feature","properties":{"obwody":["52"],"siedziba":"Samorządowe Przedszkole Nr 14","ulica":"MŁYŃSKA BOCZNA","nrBud":"4"},"geometry":{"type":"Point","coordinates":[19.97344,50.08301]}},{"type":"Feature","properties":{"obwody":["151","152","153","154"],"siedziba":"Szkoła Podstawowa Nr 25","ulica":"KOMANDOSÓW","nrBud":"29"},"geometry":{"type":"Point","coordinates":[19.93215,50.04261]}},{"type":"Feature","properties":{"obwody":["304","305","306","307","308"],"siedziba":"XXX Liceum Ogólnokształcące","ulica":"OS. DYWIZJONU 303","nrBud":"66"},"geometry":{"type":"Point","coordinates":[20.00625,50.08347]}},{"type":"Feature","properties":{"obwody":["106","107"],"siedziba":"Zespół Szkół Specjalnych Nr 4","ulica":"ZAKĄTEK","nrBud":"2"},"geometry":{"type":"Point","coordinates":[19.91625,50.07584]}},{"type":"Feature","properties":{"obwody":["139"],"siedziba":"Centrum Kultury \"Dworek Białoprądnicki\" Klub Kultury \"Chełm\"","ulica":"CHEŁMSKA","nrBud":"16"},"geometry":{"type":"Point","coordinates":[19.84658,50.0676]}},{"type":"Feature","properties":{"obwody":["433"],"siedziba":"Małopolski Szpital Ortopedyczno-Rehabilitacyjny im. prof. Bogusława Frańczuka","ulica":"AL. MODRZEWIOWA","nrBud":"22"},"geometry":{"type":"Point","coordinates":[19.86598,50.0637]}},{"type":"Feature","properties":{"obwody":["207"],"siedziba":"Centrum Kultury Podgórza Klub Soboniowice","ulica":"JERZEGO KURYŁOWICZA","nrBud":"115"},"geometry":{"type":"Point","coordinates":[19.98614,49.9833]}},{"type":"Feature","properties":{"obwody":["338","339","340","341"],"siedziba":"Szkoła Podstawowa Nr 101","ulica":"OS. JAGIELLOŃSKIE","nrBud":"9"},"geometry":{"type":"Point","coordinates":[20.02358,50.08828]}},{"type":"Feature","properties":{"obwody":["22"],"siedziba":"XLI Liceum Ogólnokształcące","ulica":"RYNEK KLEPARSKI","nrBud":"18"},"geometry":{"type":"Point","coordinates":[19.94153,50.06735]}},{"type":"Feature","properties":{"obwody":["130"],"siedziba":"Zespół Szkół Architektoniczno-Budowlanych","ulica":"JERZEGO SZABLOWSKIEGO","nrBud":"1"},"geometry":{"type":"Point","coordinates":[19.89343,50.07647]}},{"type":"Feature","properties":{"obwody":["415"],"siedziba":"Narodowy Instytut Onkologii im. Marii Skłodowskiej-Curie - Państwowy Instytut Badawczy Oddział w Krakowie","ulica":"GARNCARSKA","nrBud":"11"},"geometry":{"type":"Point","coordinates":[19.92723,50.06144]}},{"type":"Feature","properties":{"obwody":["439"],"siedziba":"Szpital Kliniczny im. dr. Józefa Babińskiego SPZOZ w Krakowie","ulica":"DR. JÓZEFA BABIŃSKIEGO","nrBud":"29"},"geometry":{"type":"Point","coordinates":[19.8883,50.0065]}},{"type":"Feature","properties":{"obwody":["418"],"siedziba":"Dom Pomocy Społecznej im. Ludwika i Anny Helclów w Krakowie","ulica":"HELCLÓW","nrBud":"2"},"geometry":{"type":"Point","coordinates":[19.93756,50.07253]}},{"type":"Feature","properties":{"obwody":["421"],"siedziba":"SP ZOZ Szpital Uniwersytecki w Krakowie","ulica":"MIKOŁAJA KOPERNIKA","nrBud":"23"},"geometry":{"type":"Point","coordinates":[19.95479,50.06351]}},{"type":"Feature","properties":{"obwody":["355","356","357"],"siedziba":"Szkoła Podstawowa Nr 86","ulica":"OS. JAGIELLOŃSKIE","nrBud":"18"},"geometry":{"type":"Point","coordinates":[20.02753,50.08493]}},{"type":"Feature","properties":{"obwody":["455"],"siedziba":"Szpital Specjalistyczny im. Stefana Żeromskiego SP ZOZ w Krakowie","ulica":"OS. NA SKARPIE","nrBud":"66"},"geometry":{"type":"Point","coordinates":[20.04616,50.06578]}},{"type":"Feature","properties":{"obwody":["72","73"],"siedziba":"Zespół Szkolno-Przedszkolny Nr 2","ulica":"PORZECZKOWA","nrBud":"3"},"geometry":{"type":"Point","coordinates":[19.94428,50.10225]}},{"type":"Feature","properties":{"obwody":["288"],"siedziba":"Urząd Miasta Krakowa","ulica":"RYNEK PODGÓRSKI","nrBud":"1"},"geometry":{"type":"Point","coordinates":[19.94986,50.04474]}},{"type":"Feature","properties":{"obwody":["381","382"],"siedziba":"Zespół Szkół Ogólnokształcących Sportowych Nr 2","ulica":"OS. TEATRALNE","nrBud":"35"},"geometry":{"type":"Point","coordinates":[20.03419,50.07998]}},{"type":"Feature","properties":{"obwody":["131","132"],"siedziba":"XVIII Liceum Ogólnokształcące","ulica":"NA BŁONIE","nrBud":"15B"},"geometry":{"type":"Point","coordinates":[19.88248,50.07762]}},{"type":"Feature","properties":{"obwody":["424"],"siedziba":"Szpital Miejski Specjalistyczny im. Gabriela Narutowicza w Krakowie","ulica":"PRĄDNICKA","nrBud":"35-37"},"geometry":{"type":"Point","coordinates":[19.93804,50.08301]}},{"type":"Feature","properties":{"obwody":["184"],"siedziba":"Szkoła Podstawowa z Oddziałami Integracyjnymi Nr 158","ulica":"STRĄKOWA","nrBud":"3A"},"geometry":{"type":"Point","coordinates":[19.92336,50.02645]}},{"type":"Feature","properties":{"obwody":["419"],"siedziba":"Areszt Śledczy w Krakowie","ulica":"MONTELUPICH","nrBud":"7"},"geometry":{"type":"Point","coordinates":[19.93987,50.07388]}},{"type":"Feature","properties":{"obwody":["293","294","295","296"],"siedziba":"Szkoła Podstawowa Nr 156","ulica":"CENTRALNA","nrBud":"39"},"geometry":{"type":"Point","coordinates":[20.01377,50.06896]}},{"type":"Feature","properties":{"obwody":["285"],"siedziba":"Specjalny Ośrodek Szkolno-Wychowawczy Nr 2 im. J. Korczaka","ulica":"JANA ZAMOYSKIEGO","nrBud":"100"},"geometry":{"type":"Point","coordinates":[19.94268,50.03637]}},{"type":"Feature","properties":{"obwody":["146"],"siedziba":"Szkoła Podstawowa Nr 31","ulica":"BOLESŁAWA PRUSA","nrBud":"18"},"geometry":{"type":"Point","coordinates":[19.91738,50.05577]}},{"type":"Feature","properties":{"obwody":["429"],"siedziba":"Dom Studencki nr 1 Olimp","ulica":"ROSTAFIŃSKIEGO","nrBud":"9"},"geometry":{"type":"Point","coordinates":[19.90445,50.069]}},{"type":"Feature","properties":{"obwody":["142","143"],"siedziba":"Szkoła Podstawowa Nr 72","ulica":"ALEJA MODRZEWIOWA","nrBud":"23"},"geometry":{"type":"Point","coordinates":[19.86504,50.06431]}},{"type":"Feature","properties":{"obwody":["438"],"siedziba":"Dom Pomocy Społecznej","ulica":"DR. JÓZEFA BABIŃSKIEGO","nrBud":"25"},"geometry":{"type":"Point","coordinates":[19.88186,50.00656]}},{"type":"Feature","properties":{"obwody":["441"],"siedziba":"Miejskie Centrum Opieki dla Osób Starszych Przewlekle Niepełnosprawnych oraz Niesamodzielnych w Krakowie","ulica":"WIELICKA","nrBud":"267"},"geometry":{"type":"Point","coordinates":[20.00644,50.00969]}},{"type":"Feature","properties":{"obwody":["40","41"],"siedziba":"Szkoła Podstawowa Nr 39","ulica":"STANISŁAWA JACHOWICZA","nrBud":"5"},"geometry":{"type":"Point","coordinates":[19.97739,50.06188]}},{"type":"Feature","properties":{"obwody":["122","123","124"],"siedziba":"VII Liceum Ogólnokształcące","ulica":"STANISŁAWA SKARBIŃSKIEGO","nrBud":"5"},"geometry":{"type":"Point","coordinates":[19.90867,50.07087]}},{"type":"Feature","properties":{"obwody":["56","57","58","59","60"],"siedziba":"Szkoła Podstawowa Nr 2","ulica":"STRZELCÓW","nrBud":"5A"},"geometry":{"type":"Point","coordinates":[19.97134,50.0918]}},{"type":"Feature","properties":{"obwody":["453"],"siedziba":"Dom Pomocy Społecznej","ulica":"OS. SZKOLNE","nrBud":"28"},"geometry":{"type":"Point","coordinates":[20.04865,50.07708]}},{"type":"Feature","properties":{"obwody":["374"],"siedziba":"Rada i Zarząd Dzielnicy XVIII","ulica":"OS. CENTRUM B","nrBud":"6"},"geometry":{"type":"Point","coordinates":[20.0405,50.07413]}},{"type":"Feature","properties":{"obwody":["300","301","302","303","410"],"siedziba":"Szkoła Podstawowa Nr 155","ulica":"OS. 2 PUŁKU LOTNICZEGO","nrBud":"21"},"geometry":{"type":"Point","coordinates":[20.00857,50.07886]}},{"type":"Feature","properties":{"obwody":["349"],"siedziba":"Publiczna Szkoła Podstawowa Sióstr Salezjanek im. Błogosławionej Laury Vicuna","ulica":"OS. KOŚCIUSZKOWSKIE","nrBud":"7"},"geometry":{"type":"Point","coordinates":[20.01332,50.08343]}},{"type":"Feature","properties":{"obwody":["350","351","352"],"siedziba":"Szkoła Podstawowa Nr 100","ulica":"OS. ALBERTYŃSKIE","nrBud":"36"},"geometry":{"type":"Point","coordinates":[20.01962,50.08094]}},{"type":"Feature","properties":{"obwody":["342"],"siedziba":"III Liceum Ogólnokształcące","ulica":"OS. WYSOKIE","nrBud":"6"},"geometry":{"type":"Point","coordinates":[20.01827,50.08902]}},{"type":"Feature","properties":{"obwody":["343","344"],"siedziba":"Szkoła Podstawowa Nr 104","ulica":"OS. WYSOKIE","nrBud":"7"},"geometry":{"type":"Point","coordinates":[20.01668,50.0893]}},{"type":"Feature","properties":{"obwody":["336","337"],"siedziba":"Zespół Szkół Zawodowych Huty im. T. Sendzimira","ulica":"OS. ZŁOTEJ JESIENI","nrBud":"2"},"geometry":{"type":"Point","coordinates":[20.02341,50.09057]}},{"type":"Feature","properties":{"obwody":["347","348"],"siedziba":"Szkoła Podstawowa Nr 92","ulica":"OS. JÓZEFA STRUSIA","nrBud":"19"},"geometry":{"type":"Point","coordinates":[20.00919,50.09019]}},{"type":"Feature","properties":{"obwody":["392","393","394","395"],"siedziba":"Szkoła Podstawowa Nr 80","ulica":"OS. NA SKARPIE","nrBud":"8"},"geometry":{"type":"Point","coordinates":[20.04297,50.06977]}},{"type":"Feature","properties":{"obwody":["297","298","385","386"],"siedziba":"Szkoła Podstawowa Nr 103","ulica":"OS. KOLOROWE","nrBud":"29"},"geometry":{"type":"Point","coordinates":[20.02256,50.07583]}},{"type":"Feature","properties":{"obwody":["384"],"siedziba":"Zespół Szkół Ekonomicznych Nr 2","ulica":"OS. SPÓŁDZIELCZE","nrBud":"6"},"geometry":{"type":"Point","coordinates":[20.02523,50.07765]}},{"type":"Feature","properties":{"obwody":["383"],"siedziba":"XI Liceum Ogólnokształcące","ulica":"OS. TEATRALNE","nrBud":"33"},"geometry":{"type":"Point","coordinates":[20.03249,50.08074]}},{"type":"Feature","properties":{"obwody":["378","379"],"siedziba":"Szkoła Podstawowa im. św. Wincentego Pallottiego","ulica":"OS. KRAKOWIAKÓW","nrBud":"47"},"geometry":{"type":"Point","coordinates":[20.04003,50.08166]}},{"type":"Feature","properties":{"obwody":["373"],"siedziba":"Szkoła Podstawowa Nr 88","ulica":"OS. SZKLANE DOMY","nrBud":"2"},"geometry":{"type":"Point","coordinates":[20.04161,50.07594]}},{"type":"Feature","properties":{"obwody":["371"],"siedziba":"Młodzieżowy Dom Kultury im. J. Korczaka","ulica":"OS. SZKOLNE","nrBud":"5"},"geometry":{"type":"Point","coordinates":[20.0475,50.07562]}},{"type":"Feature","properties":{"obwody":["375"],"siedziba":"Szkoła Podstawowa z Oddziałami Integracyjnymi Nr 105","ulica":"OS. SŁONECZNE","nrBud":"12"},"geometry":{"type":"Point","coordinates":[20.04198,50.07806]}},{"type":"Feature","properties":{"obwody":["358","359"],"siedziba":"Zespół Szkół Gastronomicznych Nr 1","ulica":"OS. ZŁOTEJ JESIENI","nrBud":"16"},"geometry":{"type":"Point","coordinates":[20.03068,50.08402]}},{"type":"Feature","properties":{"obwody":["364","365"],"siedziba":"Szkoła Podstawowa Nr 129","ulica":"OS. NA WZGÓRZACH","nrBud":"13A"},"geometry":{"type":"Point","coordinates":[20.06014,50.09736]}},{"type":"Feature","properties":{"obwody":["360","361","362"],"siedziba":"Oddziały Szkoły Podstawowej Nr 129","ulica":"OS. NA STOKU","nrBud":"34"},"geometry":{"type":"Point","coordinates":[20.05246,50.09512]}},{"type":"Feature","properties":{"obwody":["363"],"siedziba":"Szkoła Podstawowa z Oddziałami Integracyjnymi Nr 98","ulica":"OS. NA STOKU","nrBud":"52"},"geometry":{"type":"Point","coordinates":[20.05539,50.09204]}},{"type":"Feature","properties":{"obwody":["400"],"siedziba":"Zespół Szkół Specjalnych Nr 6","ulica":"TADEUSZA PTASZYCKIEGO","nrBud":"9"},"geometry":{"type":"Point","coordinates":[20.05528,50.06877]}},{"type":"Feature","properties":{"obwody":["398","399"],"siedziba":"Szkoła Podstawowa Nr 37","ulica":"OS. STALOWE","nrBud":"18"},"geometry":{"type":"Point","coordinates":[20.05293,50.07327]}},{"type":"Feature","properties":{"obwody":["391"],"siedziba":"Ośrodek Kultury Kraków Nowa Huta Klub „Jędruś”","ulica":"OS. CENTRUM A","nrBud":"6A"},"geometry":{"type":"Point","coordinates":[20.0418,50.07261]}},{"type":"Feature","properties":{"obwody":["370"],"siedziba":"Ośrodek Kultury Kraków Nowa Huta Klub Krzesławice","ulica":"MELCHIORA WAŃKOWICZA","nrBud":"17"},"geometry":{"type":"Point","coordinates":[20.05669,50.08059]}},{"type":"Feature","properties":{"obwody":["396","397"],"siedziba":"XVI Liceum Ogólnokształcące","ulica":"OS. WILLOWE","nrBud":"1"},"geometry":{"type":"Point","coordinates":[20.04684,50.072]}},{"type":"Feature","properties":{"obwody":["404"],"siedziba":"Szkoła Podstawowa Nr 141","ulica":"JÓZEFA SAWY-CALIŃSKIEGO","nrBud":"12"},"geometry":{"type":"Point","coordinates":[20.17854,50.09874]}},{"type":"Feature","properties":{"obwody":["402"],"siedziba":"Szkoła Podstawowa Nr 74","ulica":"BRANICKA","nrBud":"26"},"geometry":{"type":"Point","coordinates":[20.14236,50.05981]}},{"type":"Feature","properties":{"obwody":["401"],"siedziba":"Towarzystwo Przyjaciół Ziemi Pleszowskiej Świetlica Osiedlowa","ulica":"NADBRZEZIE","nrBud":"18"},"geometry":{"type":"Point","coordinates":[20.11043,50.06936]}},{"type":"Feature","properties":{"obwody":["403"],"siedziba":"Zespół Szkolno-Przedszkolny Nr 9","ulica":"ROMANA PRAWOCHEŃSKIEGO","nrBud":"7"},"geometry":{"type":"Point","coordinates":[20.15719,50.06978]}},{"type":"Feature","properties":{"obwody":["405"],"siedziba":"Szkoła Podstawowa Nr 142","ulica":"DROŻYSKA","nrBud":"13"},"geometry":{"type":"Point","coordinates":[20.19478,50.0556]}},{"type":"Feature","properties":{"obwody":["140"],"siedziba":"Szkoła Podstawowa Nr 48","ulica":"KSIĘCIA JÓZEFA","nrBud":"337"},"geometry":{"type":"Point","coordinates":[19.82477,50.04419]}},{"type":"Feature","properties":{"obwody":["141"],"siedziba":"Centrum Kultury \"Dworek Białoprądnicki\" Klub Kultury „Przegorzały”","ulica":"KAMEDULSKA","nrBud":"70"},"geometry":{"type":"Point","coordinates":[19.87382,50.04826]}},{"type":"Feature","properties":{"obwody":["144","145"],"siedziba":"Szkoła Podstawowa Nr 32","ulica":"KRÓLOWEJ JADWIGI","nrBud":"78"},"geometry":{"type":"Point","coordinates":[19.90443,50.05582]}},{"type":"Feature","properties":{"obwody":["121"],"siedziba":"MDK \"Dom Harcerza\"","ulica":"WŁADYSŁAWA REYMONTA","nrBud":"18"},"geometry":{"type":"Point","coordinates":[19.91473,50.06531]}},{"type":"Feature","properties":{"obwody":["430"],"siedziba":"Dom Studencki \"Nawojka\"","ulica":"WŁADYSŁAWA REYMONTA","nrBud":"11"},"geometry":{"type":"Point","coordinates":[19.91826,50.06491]}},{"type":"Feature","properties":{"obwody":["114"],"siedziba":"Urząd Miasta Krakowa","ulica":"LUBELSKA","nrBud":"27"},"geometry":{"type":"Point","coordinates":[19.93469,50.07436]}},{"type":"Feature","properties":{"obwody":["108","109"],"siedziba":"Zespół Szkolno-Przedszkolny nr 18 w Krakowie","ulica":"LITEWSKA","nrBud":"34"},"geometry":{"type":"Point","coordinates":[19.92209,50.07762]}},{"type":"Feature","properties":{"obwody":["120"],"siedziba":"Szkoła Podstawowa z Oddziałami Sportowymi Nr 5","ulica":"ALEJA KIJOWSKA","nrBud":"8"},"geometry":{"type":"Point","coordinates":[19.91451,50.07003]}},{"type":"Feature","properties":{"obwody":["116"],"siedziba":"Uniwersytet Ekonomiczny, Instytut Nauk o Jakości i Zarządzania Produktem","ulica":"HENRYKA SIENKIEWICZA","nrBud":"4"},"geometry":{"type":"Point","coordinates":[19.92587,50.07041]}},{"type":"Feature","properties":{"obwody":["115"],"siedziba":"Zespół Szkolno-Przedszkolny Nr 4","ulica":"URZĘDNICZA","nrBud":"65"},"geometry":{"type":"Point","coordinates":[19.92121,50.07414]}},{"type":"Feature","properties":{"obwody":["135","409"],"siedziba":"Szkoła Podstawowa Nr 50","ulica":"KATOWICKA","nrBud":"28"},"geometry":{"type":"Point","coordinates":[19.88198,50.08443]}},{"type":"Feature","properties":{"obwody":["432"],"siedziba":"Szpital Specjalistyczny im. J. Dietla w Krakowie Małopolskie Centrum Reumatologii, Immunologii i Rehabilitacji","ulica":"AL. MARSZAŁKA FERDYNANDA FOCHA","nrBud":"33"},"geometry":{"type":"Point","coordinates":[19.9137,50.05753]}},{"type":"Feature","properties":{"obwody":["81","82","83","84"],"siedziba":"Szkoła Podstawowa z Oddziałami Integracyjnymi Nr 107","ulica":"ZDROWA","nrBud":"6"},"geometry":{"type":"Point","coordinates":[19.94116,50.08931]}},{"type":"Feature","properties":{"obwody":["89","90","91"],"siedziba":"Szkoła Podstawowa Nr 21","ulica":"BATALIONU „SKAŁA” AK","nrBud":"12"},"geometry":{"type":"Point","coordinates":[19.92282,50.08974]}},{"type":"Feature","properties":{"obwody":["160"],"siedziba":"Szkoła Podstawowa Nr 54","ulica":"TYNIECKA","nrBud":"122"},"geometry":{"type":"Point","coordinates":[19.85843,50.02951]}},{"type":"Feature","properties":{"obwody":["158","159"],"siedziba":"Szkoła Podstawowa Nr 62","ulica":"ĆWIKŁOWA","nrBud":"1"},"geometry":{"type":"Point","coordinates":[19.88908,50.03583]}},{"type":"Feature","properties":{"obwody":["434"],"siedziba":"Dom Pomocy Społecznej im. św. Jana Pawła II w Krakowie","ulica":"PRASKA","nrBud":"25"},"geometry":{"type":"Point","coordinates":[19.91248,50.04757]}},{"type":"Feature","properties":{"obwody":["157"],"siedziba":"Specjalny Ośrodek Szkolno-Wychowawczy Nr 3","ulica":"PRASKA","nrBud":"64"},"geometry":{"type":"Point","coordinates":[19.90738,50.04477]}},{"type":"Feature","properties":{"obwody":["185"],"siedziba":"Miejskie Przedsiębiorstwo Komunikacyjne S.A.","ulica":"JANA BROŻKA","nrBud":"3"},"geometry":{"type":"Point","coordinates":[19.93234,50.03072]}},{"type":"Feature","properties":{"obwody":["284"],"siedziba":"Zespół Szkół Mechanicznych Nr 2","ulica":"ALEJA GEN. JANA SKRZYNECKIEGO","nrBud":"12"},"geometry":{"type":"Point","coordinates":[19.93472,50.03348]}},{"type":"Feature","properties":{"obwody":["186"],"siedziba":"Sieć Badawcza Łukasiewicz - Łódzki Instytut Technologiczny","ulica":"ZAKOPIAŃSKA","nrBud":"9"},"geometry":{"type":"Point","coordinates":[19.93486,50.02701]}},{"type":"Feature","properties":{"obwody":["174","175","176","177","178","179"],"siedziba":"Szkoła Podstawowa Nr 40","ulica":"PSZCZELNA","nrBud":"13"},"geometry":{"type":"Point","coordinates":[19.91598,50.02596]}},{"type":"Feature","properties":{"obwody":["190","191"],"siedziba":"Szkoła Podstawowa Nr 49","ulica":"JÓZEFA MONTWIŁŁA-MIRECKIEGO","nrBud":"29"},"geometry":{"type":"Point","coordinates":[19.92417,50.01875]}},{"type":"Feature","properties":{"obwody":["147","148"],"siedziba":"Zespół Szkół Ogólnokształcących Nr 18","ulica":"SENATORSKA","nrBud":"35"},"geometry":{"type":"Point","coordinates":[19.91703,50.05368]}},{"type":"Feature","properties":{"obwody":["104","105"],"siedziba":"Szkoła Podstawowa Nr 113","ulica":"PIOTRA STACHIEWICZA","nrBud":"33"},"geometry":{"type":"Point","coordinates":[19.91702,50.08612]}},{"type":"Feature","properties":{"obwody":["155","156"],"siedziba":"Zespół Szkół Łączności","ulica":"MONTE CASSINO","nrBud":"31"},"geometry":{"type":"Point","coordinates":[19.92232,50.04638]}},{"type":"Feature","properties":{"obwody":["290","291"],"siedziba":"XLIII Liceum Ogólnokształcące","ulica":"BOLESŁAWA LIMANOWSKIEGO","nrBud":"60 - 62"},"geometry":{"type":"Point","coordinates":[19.95905,50.04342]}},{"type":"Feature","properties":{"obwody":["198","199"],"siedziba":"Szkoła Podstawowa Nr 134","ulica":"KŁUSZYŃSKA","nrBud":"46"},"geometry":{"type":"Point","coordinates":[19.91317,49.99104]}},{"type":"Feature","properties":{"obwody":["161","162"],"siedziba":"Centrum Kultury Podgórza Klub Tyniec","ulica":"DZIEWIARZY","nrBud":"7"},"geometry":{"type":"Point","coordinates":[19.80691,50.01804]}},{"type":"Feature","properties":{"obwody":["136","137"],"siedziba":"Szkoła Podstawowa Nr 138","ulica":"KAZIMIERZA WIERZYŃSKIEGO","nrBud":"3"},"geometry":{"type":"Point","coordinates":[19.84688,50.08459]}},{"type":"Feature","properties":{"obwody":["200"],"siedziba":"Oddziały Szkoły Podstawowej Nr 97","ulica":"ARMII \"KRAKÓW\"","nrBud":"76"},"geometry":{"type":"Point","coordinates":[19.92513,50.00131]}},{"type":"Feature","properties":{"obwody":["222","223","224"],"siedziba":"Szkoła Podstawowa Nr 55","ulica":"DOBCZYCKA","nrBud":"20"},"geometry":{"type":"Point","coordinates":[19.9557,50.01665]}},{"type":"Feature","properties":{"obwody":["425"],"siedziba":"Dom Pomocy Społecznej","ulica":"PIOTRA KLUZEKA","nrBud":"6"},"geometry":{"type":"Point","coordinates":[19.93508,50.09284]}},{"type":"Feature","properties":{"obwody":["93","412"],"siedziba":"Szkoła Podstawowa Nr 67","ulica":"KACZORÓWKA","nrBud":"4"},"geometry":{"type":"Point","coordinates":[19.90579,50.10708]}},{"type":"Feature","properties":{"obwody":["163","164"],"siedziba":"Zespół Szkolno-Przedszkolny Nr 8","ulica":"MIECZYSŁAWA WRONY","nrBud":"115"},"geometry":{"type":"Point","coordinates":[19.87229,49.98782]}},{"type":"Feature","properties":{"obwody":["201","202"],"siedziba":"Szkoła Podstawowa Nr 43","ulica":"MYŚLENICKA","nrBud":"112"},"geometry":{"type":"Point","coordinates":[19.94696,49.99329]}},{"type":"Feature","properties":{"obwody":["217","218","219","220","221"],"siedziba":"Szkoła Podstawowa Nr 149","ulica":"FRANCISZKA BUJAKA","nrBud":"15"},"geometry":{"type":"Point","coordinates":[19.95143,50.01011]}},{"type":"Feature","properties":{"obwody":["76","77","78","79","80"],"siedziba":"Zespół Szkolno-Przedszkolny Nr 16","ulica":"JÓZEFA MACKIEWICZA","nrBud":"15"},"geometry":{"type":"Point","coordinates":[19.94583,50.09344]}},{"type":"Feature","properties":{"obwody":["94","95"],"siedziba":"Zespół Szkolno-Przedszkolny Nr 14","ulica":"STAWOWA","nrBud":"179"},"geometry":{"type":"Point","coordinates":[19.88484,50.0964]}},{"type":"Feature","properties":{"obwody":["234","235","236"],"siedziba":"Szkoła Podstawowa Nr 27","ulica":"PODEDWORZE","nrBud":"16"},"geometry":{"type":"Point","coordinates":[19.97473,50.01229]}},{"type":"Feature","properties":{"obwody":["226","227","228"],"siedziba":"Szkoła Podstawowa im. Bł. Celiny Borzęckiej","ulica":"MALBORSKA","nrBud":"98"},"geometry":{"type":"Point","coordinates":[19.9654,50.02264]}},{"type":"Feature","properties":{"obwody":["230","231","232","233"],"siedziba":"Zespół Szkolno-Przedszkolny Nr 17","ulica":"CZARNOGÓRSKA","nrBud":"14"},"geometry":{"type":"Point","coordinates":[19.97093,50.01952]}},{"type":"Feature","properties":{"obwody":["203"],"siedziba":"Zespół Szkolno-Przedszkolny Nr 13","ulica":"MIRTOWA","nrBud":"2"},"geometry":{"type":"Point","coordinates":[19.94585,49.98426]}},{"type":"Feature","properties":{"obwody":["204"],"siedziba":"Centrum Kultury Podgórza Klub Wróblowice","ulica":"HENRYKA NIEWODNICZAŃSKIEGO","nrBud":"74"},"geometry":{"type":"Point","coordinates":[19.94974,49.9794]}},{"type":"Feature","properties":{"obwody":["206"],"siedziba":"Szkoła Podstawowa \"Rajska Szkoła\"","ulica":"TUCHOWSKA","nrBud":"113"},"geometry":{"type":"Point","coordinates":[19.97187,49.99126]}},{"type":"Feature","properties":{"obwody":["248","249","250"],"siedziba":"Szkoła Podstawowa Nr 41","ulica":"ERAZMA JERZMANOWSKIEGO","nrBud":"6"},"geometry":{"type":"Point","coordinates":[20.00711,50.01829]}},{"type":"Feature","properties":{"obwody":["279","280"],"siedziba":"Samorządowe Przedszkole Nr 11","ulica":"SASKA","nrBud":"11"},"geometry":{"type":"Point","coordinates":[19.98343,50.04337]}},{"type":"Feature","properties":{"obwody":["282"],"siedziba":"Przedsiębiorstwo KSTU Krakowskie CentrumTerapii Uzależnień","ulica":"WIELICKA","nrBud":"73"},"geometry":{"type":"Point","coordinates":[19.9681,50.03392]}},{"type":"Feature","properties":{"obwody":["281"],"siedziba":"Urząd Miasta Krakowa","ulica":"WIELICKA","nrBud":"28A"},"geometry":{"type":"Point","coordinates":[19.96631,50.03877]}},{"type":"Feature","properties":{"obwody":["273","274"],"siedziba":"Zespół Szkolno-Przedszkolny Nr 15","ulica":"SEWERYNA GOSZCZYŃSKIEGO","nrBud":"44"},"geometry":{"type":"Point","coordinates":[19.99225,50.03712]}},{"type":"Feature","properties":{"obwody":["271"],"siedziba":"Szkoła Podstawowa Nr 137","ulica":"FELIKSA WROBELA","nrBud":"79"},"geometry":{"type":"Point","coordinates":[20.0659,50.04419]}},{"type":"Feature","properties":{"obwody":["272"],"siedziba":"Zespół Szkolno-Przedszkolny Nr 21","ulica":"GOLIKÓWKA","nrBud":"52"},"geometry":{"type":"Point","coordinates":[20.03383,50.04592]}},{"type":"Feature","properties":{"obwody":["447"],"siedziba":"Dom Pomocy Społecznej","ulica":"ŁANOWA","nrBud":"41"},"geometry":{"type":"Point","coordinates":[19.99316,50.03891]}},{"type":"Feature","properties":{"obwody":["265"],"siedziba":"Szkoła Podstawowa Nr 111","ulica":"BIEŻANOWSKA","nrBud":"204"},"geometry":{"type":"Point","coordinates":[20.02245,50.01903]}},{"type":"Feature","properties":{"obwody":["263","264"],"siedziba":"XXV Liceum Ogólnokształcące","ulica":"TELIMENY","nrBud":"9"},"geometry":{"type":"Point","coordinates":[20.01614,50.01993]}},{"type":"Feature","properties":{"obwody":["259","260","261","262"],"siedziba":"Zespół Szkolno-Przedszkolny Nr 11","ulica":"ALEKSANDRY","nrBud":"17"},"geometry":{"type":"Point","coordinates":[20.01672,50.01246]}},{"type":"Feature","properties":{"obwody":["8"],"siedziba":"Urząd Miasta Krakowa","ulica":"WIELOPOLE","nrBud":"17A"},"geometry":{"type":"Point","coordinates":[19.94553,50.05786]}},{"type":"Feature","properties":{"obwody":["7"],"siedziba":"Zespół Szkolno-Przedszkolny Nr 6","ulica":"JÓZEFA DIETLA","nrBud":"70"},"geometry":{"type":"Point","coordinates":[19.94438,50.05584]}},{"type":"Feature","properties":{"obwody":["6"],"siedziba":"XLIV Liceum Ogólnokształcące","ulica":"BERNARDYŃSKA","nrBud":"7"},"geometry":{"type":"Point","coordinates":[19.9363,50.05282]}},{"type":"Feature","properties":{"obwody":["5"],"siedziba":"Samorządowe Przedszkole Nr 45","ulica":"PIEKARSKA","nrBud":"14"},"geometry":{"type":"Point","coordinates":[19.93979,50.04786]}},{"type":"Feature","properties":{"obwody":["12"],"siedziba":"Szkoła Podstawowa Nr 4","ulica":"SMOLEŃSK","nrBud":"5 - 7"},"geometry":{"type":"Point","coordinates":[19.93193,50.05933]}},{"type":"Feature","properties":{"obwody":["16"],"siedziba":"Małopolskie Centrum Doskonalenia Nauczycieli Ośrodek w Krakowie","ulica":"GARBARSKA","nrBud":"1"},"geometry":{"type":"Point","coordinates":[19.93486,50.06593]}},{"type":"Feature","properties":{"obwody":["19"],"siedziba":"Centrum Medyczne 4M","ulica":"KROWODERSKA","nrBud":"17"},"geometry":{"type":"Point","coordinates":[19.93771,50.06773]}},{"type":"Feature","properties":{"obwody":["21"],"siedziba":"X Liceum Ogólnokształcące","ulica":"ZYGMUNTA WRÓBLEWSKIEGO","nrBud":"8"},"geometry":{"type":"Point","coordinates":[19.93956,50.06947]}},{"type":"Feature","properties":{"obwody":["20"],"siedziba":"Samorządowe Przedszkole Nr 44","ulica":"JERZEGO ŻUŁAWSKIEGO","nrBud":"9"},"geometry":{"type":"Point","coordinates":[19.93388,50.07271]}},{"type":"Feature","properties":{"obwody":["34","36"],"siedziba":"VIII Liceum Ogólnokształcące","ulica":"GRZEGÓRZECKA","nrBud":"24"},"geometry":{"type":"Point","coordinates":[19.95543,50.05864]}},{"type":"Feature","properties":{"obwody":["17","18"],"siedziba":"II Liceum Ogólnokształcące","ulica":"JANA SOBIESKIEGO","nrBud":"9"},"geometry":{"type":"Point","coordinates":[19.93124,50.0683]}},{"type":"Feature","properties":{"obwody":["3"],"siedziba":"Zespół Szkolno-Przedszkolny Nr 3","ulica":"MIODOWA","nrBud":"36"},"geometry":{"type":"Point","coordinates":[19.94722,50.05348]}},{"type":"Feature","properties":{"obwody":["23","65","66","67"],"siedziba":"Szkoła Podstawowa Nr 95","ulica":"WILEŃSKA","nrBud":"9B"},"geometry":{"type":"Point","coordinates":[19.95519,50.08113]}},{"type":"Feature","properties":{"obwody":["61"],"siedziba":"Zespół Szkół Ogólnokształcących Nr 13","ulica":"KAZIMIERZA ODNOWICIELA","nrBud":"2"},"geometry":{"type":"Point","coordinates":[19.97062,50.0877]}},{"type":"Feature","properties":{"obwody":["24","25"],"siedziba":"Zespół Szkół Ogólnokształcących Mistrzostwa Sportowego","ulica":"GROCHOWSKA","nrBud":"20"},"geometry":{"type":"Point","coordinates":[19.96233,50.07358]}},{"type":"Feature","properties":{"obwody":["27"],"siedziba":"Urząd Miasta Krakowa","ulica":"JANA KASPROWICZA","nrBud":"29"},"geometry":{"type":"Point","coordinates":[19.96779,50.06806]}},{"type":"Feature","properties":{"obwody":["28"],"siedziba":"XXIV Liceum Ogólnokształcące","ulica":"WILHELMA WILKA-WYRWIŃSKIEGO","nrBud":"1"},"geometry":{"type":"Point","coordinates":[19.96561,50.07199]}},{"type":"Feature","properties":{"obwody":["32","33"],"siedziba":"XIII Liceum Ogólnokształcące","ulica":"SĄDOWA","nrBud":"4"},"geometry":{"type":"Point","coordinates":[19.96396,50.0629]}},{"type":"Feature","properties":{"obwody":["30","31"],"siedziba":"Szkoła Podstawowa Nr 38","ulica":"PŁK. FRANCESCO NULLO","nrBud":"23"},"geometry":{"type":"Point","coordinates":[19.96545,50.06321]}},{"type":"Feature","properties":{"obwody":["367"],"siedziba":"Ośrodek Kultury Kraków Nowa Huta Klub Dukat","ulica":"STYCZNA","nrBud":"1"},"geometry":{"type":"Point","coordinates":[20.07349,50.09958]}},{"type":"Feature","properties":{"obwody":["138"],"siedziba":"Publiczna Szkoła Podstawowa Sióstr Pijarek im. św. Józefa Kalasancjusza","ulica":"GRZEGORZA KORZENIAKA","nrBud":"18"},"geometry":{"type":"Point","coordinates":[19.83362,50.07345]}},{"type":"Feature","properties":{"obwody":["97","98","99","100","101"],"siedziba":"Szkoła Podstawowa Nr 119","ulica":"BOLESŁAWA CZERWIEŃSKIEGO","nrBud":"1"},"geometry":{"type":"Point","coordinates":[19.90272,50.08464]}},{"type":"Feature","properties":{"obwody":["85","86","87","88"],"siedziba":"Szkoła Podstawowa z Oddziałami Integracyjnymi Nr 15","ulica":"KLUCZBORSKA","nrBud":"3"},"geometry":{"type":"Point","coordinates":[19.9291,50.08729]}},{"type":"Feature","properties":{"obwody":["149","150"],"siedziba":"Szkoła Podstawowa Nr 110","ulica":"SKWEROWA","nrBud":"3"},"geometry":{"type":"Point","coordinates":[19.92387,50.05058]}},{"type":"Feature","properties":{"obwody":["310","311","312","313"],"siedziba":"Zespół Szkolno-Przedszkolny Nr 5","ulica":"OS. OŚWIECENIA","nrBud":"30"},"geometry":{"type":"Point","coordinates":[19.98986,50.09025]}},{"type":"Feature","properties":{"obwody":["92"],"siedziba":"Samorządowe Przedszkole Nr 165","ulica":"WINCENTEGO DANKA","nrBud":"1"},"geometry":{"type":"Point","coordinates":[19.92609,50.09301]}},{"type":"Feature","properties":{"obwody":["423"],"siedziba":"Krakowski Szpital Specjalistyczny im. św. Jana Pawła II","ulica":"PRĄDNICKA","nrBud":"80"},"geometry":{"type":"Point","coordinates":[19.9388,50.09019]}},{"type":"Feature","properties":{"obwody":["445"],"siedziba":"Dom Pomocy Społecznej Zakonu Przenajświętszej Trójcy","ulica":"ŁANOWA","nrBud":"1B"},"geometry":{"type":"Point","coordinates":[19.98639,50.03515]}},{"type":"Feature","properties":{"obwody":["129"],"siedziba":"Centrum Kształcenia Zawodowego Nr 1 Wydział Budowlany","ulica":"WESELE","nrBud":"41"},"geometry":{"type":"Point","coordinates":[19.89497,50.07564]}},{"type":"Feature","properties":{"obwody":["448","449"],"siedziba":"Szpital Specjalistyczny im. Ludwika Rydygiera w Krakowie Sp. z o. o.","ulica":"OS. ZŁOTEJ JESIENI","nrBud":"1"},"geometry":{"type":"Point","coordinates":[20.01927,50.09206]}},{"type":"Feature","properties":{"obwody":["118"],"siedziba":"IX Liceum Ogólnokształcące","ulica":"KAZIMIERZA CZAPIŃSKIEGO","nrBud":"5"},"geometry":{"type":"Point","coordinates":[19.91919,50.06905]}},{"type":"Feature","properties":{"obwody":["96"],"siedziba":"Publiczna Katolicka Szkoła Podstawowa im. św. Joanny Beretty Molli","ulica":"STELMACHÓW","nrBud":"137"},"geometry":{"type":"Point","coordinates":[19.9043,50.09526]}},{"type":"Feature","properties":{"obwody":["422"],"siedziba":"Dom Pomocy Społecznej","ulica":"ROZRYWKA","nrBud":"1"},"geometry":{"type":"Point","coordinates":[19.98041,50.09564]}},{"type":"Feature","properties":{"obwody":["53","54","55"],"siedziba":"Szkoła Podstawowa Nr 64","ulica":"SADZAWKI","nrBud":"1"},"geometry":{"type":"Point","coordinates":[19.9751,50.08248]}},{"type":"Feature","properties":{"obwody":["133","134"],"siedziba":"Szkoła Podstawowa Nr 153","ulica":"NA BŁONIE","nrBud":"15D"},"geometry":{"type":"Point","coordinates":[19.88398,50.07741]}},{"type":"Feature","properties":{"obwody":["440"],"siedziba":"SCANMED S.A. Szpital św. Rafała","ulica":"ADAMA BOCHENKA","nrBud":"12"},"geometry":{"type":"Point","coordinates":[19.97544,50.01091]}},{"type":"Feature","properties":{"obwody":["74","75"],"siedziba":"Szkoła Podstawowa Nr 58","ulica":"STANISŁAWA PIGONIA","nrBud":"2"},"geometry":{"type":"Point","coordinates":[19.93392,50.09409]}},{"type":"Feature","properties":{"obwody":["451"],"siedziba":"Areszt Śledczy w Krakowie Oddział Zewnętrzny w Krakowie-Nowej Hucie","ulica":"SPŁAWY","nrBud":"2"},"geometry":{"type":"Point","coordinates":[20.1345,50.09177]}},{"type":"Feature","properties":{"obwody":["454"],"siedziba":"Centrum Medyczne Ujastek Sp. z o.o.","ulica":"UJASTEK","nrBud":"3"},"geometry":{"type":"Point","coordinates":[20.06839,50.08114]}},{"type":"Feature","properties":{"obwody":["456"],"siedziba":"Serdeczna Troska Sp. z o.o. Zakład Opiekuńczo-Leczniczy w Krakowie","ulica":"RZEPAKOWA","nrBud":"5A"},"geometry":{"type":"Point","coordinates":[20.1517,50.07378]}},{"type":"Feature","properties":{"obwody":["431"],"siedziba":"Dom Studencki Bydgoska","ulica":"BYDGOSKA","nrBud":"19"},"geometry":{"type":"Point","coordinates":[19.90969,50.07035]}},{"type":"Feature","properties":{"obwody":["64","68"],"siedziba":"Młodzieżowy Dom Kultury","ulica":"AL. 29 LISTOPADA","nrBud":"102"},"geometry":{"type":"Point","coordinates":[19.95747,50.089]}},{"type":"Feature","properties":{"obwody":["428"],"siedziba":"SP ZOZ Ministerstwa Spraw Wewnętrznych i Administracji w Krakowie","ulica":"KRONIKARZA GALLA","nrBud":"25"},"geometry":{"type":"Point","coordinates":[19.91315,50.07191]}},{"type":"Feature","properties":{"obwody":["102","103"],"siedziba":"XIV Liceum Ogólnokształcące","ulica":"JÓZEFA CHEŁMOŃSKIEGO","nrBud":"24"},"geometry":{"type":"Point","coordinates":[19.91339,50.08688]}},{"type":"Feature","properties":{"obwody":["193","194","195"],"siedziba":"Szkoła Podstawowa Nr 97","ulica":"DOKTORA JUDYMA","nrBud":"10"},"geometry":{"type":"Point","coordinates":[19.91879,50.00146]}},{"type":"Feature","properties":{"obwody":["180","181","182","183"],"siedziba":"Szkoła Podstawowa z Oddziałami Integracyjnymi Nr 151","ulica":"WACŁAWA LIPIŃSKIEGO","nrBud":"2"},"geometry":{"type":"Point","coordinates":[19.92268,50.02988]}},{"type":"Feature","properties":{"obwody":["369"],"siedziba":"Oddziały Szkoły Podstawowej Nr 78","ulica":"ŁUCZANOWICKA","nrBud":"2A"},"geometry":{"type":"Point","coordinates":[20.09444,50.09565]}},{"type":"Feature","properties":{"obwody":["2"],"siedziba":"Zespół Szkół Mechanicznych Nr 4","ulica":"PODBRZEZIE","nrBud":"10"},"geometry":{"type":"Point","coordinates":[19.94467,50.05356]}},{"type":"Feature","properties":{"obwody":["257","258"],"siedziba":"Zespół Szkolno-Przedszkolny Nr 10","ulica":"LUDWIKA RYDYGIERA","nrBud":"20"},"geometry":{"type":"Point","coordinates":[20.00599,50.00632]}},{"type":"Feature","properties":{"obwody":["165","166","167","407"],"siedziba":"Zespół Szkolno-Przedszkolny Nr 7","ulica":"SKOTNICKA","nrBud":"86"},"geometry":{"type":"Point","coordinates":[19.87378,50.01668]}},{"type":"Feature","properties":{"obwody":["266","267","268"],"siedziba":"Szkoła Podstawowa Nr 124","ulica":"FERDYNANDA WEIGLA","nrBud":"2"},"geometry":{"type":"Point","coordinates":[20.0409,50.01441]}},{"type":"Feature","properties":{"obwody":["426"],"siedziba":"Zakład Opiekuńczo-Leczniczy BONA-MED Sp. z o. o.","ulica":"KSIĘDZA KAZIMIERZA SIEMASZKI","nrBud":"17CE"},"geometry":{"type":"Point","coordinates":[19.94032,50.08425]}},{"type":"Feature","properties":{"obwody":["435"],"siedziba":"Dom Pomocy Społecznej w Krakowie","ulica":"PRASKA","nrBud":"27"},"geometry":{"type":"Point","coordinates":[19.91176,50.04729]}},{"type":"Feature","properties":{"obwody":["269","270","408"],"siedziba":"Szkoła Podstawowa nr 20","ulica":"AGATOWA","nrBud":"41"},"geometry":{"type":"Point","coordinates":[20.04478,50.02297]}},{"type":"Feature","properties":{"obwody":["196","197","406"],"siedziba":"Szkoła Podstawowa nr 14","ulica":"PROFESORA WOJCIECHA MARII BARTLA","nrBud":"29"},"geometry":{"type":"Point","coordinates":[19.89604,49.99791]}},{"type":"Feature","properties":{"obwody":["69","70","71"],"siedziba":"Zespół Szkolno-Przedszkolny Nr 12","ulica":"KS. JÓZEFA MEIERA","nrBud":"16D"},"geometry":{"type":"Point","coordinates":[19.96398,50.09881]}},{"type":"Feature","properties":{"obwody":["442","443","444"],"siedziba":"SP ZOZ Szpital Uniwersytecki w Krakowie","ulica":"MACIEJA JAKUBOWSKIEGO","nrBud":"2"},"geometry":{"type":"Point","coordinates":[20.00076,50.00935]}},{"type":"Feature","properties":{"obwody":["366","411"],"siedziba":"Ośrodek Kultury Kraków-Nowa Huta, Klub Zakole","ulica":"ZAKOLE","nrBud":"31"},"geometry":{"type":"Point","coordinates":[20.05798,50.11239]}},{"type":"Feature","properties":{"obwody":["427"],"siedziba":"5 Wojskowy Szpital Kliniczny z Polikliniką SP ZOZ w Krakowie","ulica":"WROCŁAWSKA","nrBud":"1 - 3"},"geometry":{"type":"Point","coordinates":[19.93435,50.0752]}},{"type":"Feature","properties":{"obwody":["225"],"siedziba":"Zarząd Infrastruktury Sportowej w Krakowie","ulica":"WALEREGO SŁAWKA","nrBud":"10"},"geometry":{"type":"Point","coordinates":[19.95673,50.02497]}},{"type":"Feature","properties":{"obwody":["309"],"siedziba":"Międzynarodowe Centrum Kształcenia","ulica":"STANISŁAWA SKARŻYŃSKIEGO","nrBud":"1"},"geometry":{"type":"Point","coordinates":[19.9964,50.08404]}},{"type":"Feature","properties":{"obwody":["323","324"],"siedziba":"Szkoła Podstawowa z Oddziałami Integracyjnymi Nr 77","ulica":"OS. ZŁOTEGO WIEKU","nrBud":"36"},"geometry":{"type":"Point","coordinates":[20.00368,50.09765]}},{"type":"Feature","properties":{"obwody":["353","354"],"siedziba":"Szkoła Podstawowa im. Bogdana Jańskiego w Krakowie","ulica":"OS. NIEPODLEGŁOŚCI","nrBud":"19"},"geometry":{"type":"Point","coordinates":[20.02084,50.07982]}},{"type":"Feature","properties":{"obwody":["380"],"siedziba":"Ośrodek Kultury im. C. K. Norwida","ulica":"OS. GÓRALI","nrBud":"5"},"geometry":{"type":"Point","coordinates":[20.03637,50.07976]}},{"type":"Feature","properties":{"obwody":["345","346"],"siedziba":"Szkoła Podstawowa Nr 82","ulica":"OS. KALINOWE","nrBud":"17"},"geometry":{"type":"Point","coordinates":[20.01253,50.09132]}},{"type":"Feature","properties":{"obwody":["450"],"siedziba":"Serdeczna Troska Sp. z o.o. Zakład Opiekuńczo-Leczniczy w Krakowie","ulica":"OS. ZŁOTEJ JESIENI","nrBud":"5"},"geometry":{"type":"Point","coordinates":[20.02535,50.0912]}},{"type":"Feature","properties":{"obwody":["452"],"siedziba":"Dom Pomocy Społecznej","ulica":"OS. SPORTOWE","nrBud":"9"},"geometry":{"type":"Point","coordinates":[20.04556,50.08104]}},{"type":"Feature","properties":{"obwody":["376"],"siedziba":"Zespół Szkół Zawodowych Nr 2","ulica":"OS. SZKOLNE","nrBud":"18"},"geometry":{"type":"Point","coordinates":[20.04738,50.07984]}},{"type":"Feature","properties":{"obwody":["372"],"siedziba":"Zespół Szkół Elektrycznych Nr 2","ulica":"OS. SZKOLNE","nrBud":"26"},"geometry":{"type":"Point","coordinates":[20.04895,50.0775]}},{"type":"Feature","properties":{"obwody":["292"],"siedziba":"Urząd Miasta Krakowa","ulica":"ZABŁOCIE","nrBud":"22"},"geometry":{"type":"Point","coordinates":[19.96697,50.0502]}},{"type":"Feature","properties":{"obwody":["437"],"siedziba":"Dom Pomocy Społecznej Zgromadzenia Sióstr Służebniczek NMP NP","ulica":"PODGÓRKI TYNIECKIE","nrBud":"96"},"geometry":{"type":"Point","coordinates":[19.84153,50.01004]}},{"type":"Feature","properties":{"obwody":["245","246"],"siedziba":"Szkoła Podstawowa Nr 61","ulica":"WACŁAWA POPŁAWSKIEGO","nrBud":"17"},"geometry":{"type":"Point","coordinates":[19.99023,50.02455]}},{"type":"Feature","properties":{"obwody":["38","39"],"siedziba":"Szkoła Podstawowa Nr 18","ulica":"PÓŁKOLE","nrBud":"11"},"geometry":{"type":"Point","coordinates":[19.98187,50.06007]}},{"type":"Feature","properties":{"obwody":["283"],"siedziba":"Szkoła Podstawowa Nr 29","ulica":"ALEJA EDWARDA DEMBOWSKIEGO","nrBud":"12"},"geometry":{"type":"Point","coordinates":[19.9551,50.0419]}},{"type":"Feature","properties":{"obwody":["119"],"siedziba":"Szkoła Podstawowa z Oddziałami Integracyjnymi Nr 12","ulica":"ALEJA KIJOWSKA","nrBud":"3"},"geometry":{"type":"Point","coordinates":[19.91338,50.06891]}},{"type":"Feature","properties":{"obwody":["289"],"siedziba":"Szkoła Muzyczna I i II Stopnia","ulica":"JÓZEFIŃSKA","nrBud":"10"},"geometry":{"type":"Point","coordinates":[19.95001,50.04585]}},{"type":"Feature","properties":{"obwody":["229"],"siedziba":"Zespół Szkół Elektrycznych Nr 1 Internat","ulica":"HENRYKA KAMIEŃSKIEGO","nrBud":"49A"},"geometry":{"type":"Point","coordinates":[19.97546,50.02473]}},{"type":"Feature","properties":{"obwody":["9","10"],"siedziba":"Szkoła Podstawowa Nr 1","ulica":"ŚW. MARKA","nrBud":"34"},"geometry":{"type":"Point","coordinates":[19.94343,50.06276]}},{"type":"Feature","properties":{"obwody":["168","169","170","171","172","173"],"siedziba":"Szkoła Podstawowa Nr 53","ulica":"SKOŚNA","nrBud":"8"},"geometry":{"type":"Point","coordinates":[19.89961,50.01151]}},{"type":"Feature","properties":{"obwody":["436"],"siedziba":"Dom Pomocy Społecznej św. Brata Alberta","ulica":"ADOLFA NOWACZYŃSKIEGO","nrBud":"1"},"geometry":{"type":"Point","coordinates":[19.92043,50.04563]}},{"type":"Feature","properties":{"obwody":["189"],"siedziba":"Centrum Kultury Podgórza Centrum Sztuki Współczesnej „Solvay”","ulica":"ZAKOPIAŃSKA","nrBud":"62"},"geometry":{"type":"Point","coordinates":[19.92849,50.01301]}},{"type":"Feature","properties":{"obwody":["377"],"siedziba":"Publiczne Liceum Ogólnokształcące im. Królowej Apostołów w Krakowie","ulica":"BULWAROWA","nrBud":"33"},"geometry":{"type":"Point","coordinates":[20.04694,50.0818]}},{"type":"Feature","properties":{"obwody":["210","211","212"],"siedziba":"Zespół Szkół Odzieżowych Nr 1","ulica":"CECHOWA","nrBud":"57"},"geometry":{"type":"Point","coordinates":[19.96573,50.00609]}},{"type":"Feature","properties":{"obwody":["110","111","112","113"],"siedziba":"Szkoła Podstawowa Nr 36","ulica":"MAZOWIECKA","nrBud":"70"},"geometry":{"type":"Point","coordinates":[19.92249,50.07591]}},{"type":"Feature","properties":{"obwody":["4"],"siedziba":"Szkoła Podstawowa z Oddziałami Integracyjnymi Nr 22","ulica":"ADAMA CHMIELOWSKIEGO","nrBud":"1"},"geometry":{"type":"Point","coordinates":[19.94189,50.04611]}},{"type":"Feature","properties":{"obwody":["414"],"siedziba":"Dom Pomocy Społecznej","ulica":"KRAKOWSKA","nrBud":"55"},"geometry":{"type":"Point","coordinates":[19.94368,50.04625]}},{"type":"Feature","properties":{"obwody":["62","63"],"siedziba":"Samorządowe Przedszkole Nr 178","ulica":"SUDOLSKA","nrBud":"3"},"geometry":{"type":"Point","coordinates":[19.96624,50.09152]}},{"type":"Feature","properties":{"obwody":["387","388","389","390"],"siedziba":"Szkoła Podstawowa Nr 91","ulica":"OS. HANDLOWE","nrBud":"4"},"geometry":{"type":"Point","coordinates":[20.03088,50.07382]}},{"type":"Feature","properties":{"obwody":["413"],"siedziba":"Bonifraterskie Centrum Medyczne sp. z o.o., Oddział w Krakowie, Szpital Zakonu Bonifratrów św. Jana Grandego w Krakowie","ulica":"TRYNITARSKA","nrBud":"11"},"geometry":{"type":"Point","coordinates":[19.94515,50.04753]}},{"type":"Feature","properties":{"obwody":["35"],"siedziba":"Zespół Szkół Ogólnokształcących nr 1","ulica":"KS. FRANCISZKA BLACHNICKIEGO","nrBud":"1"},"geometry":{"type":"Point","coordinates":[19.9514,50.05561]}},{"type":"Feature","properties":{"obwody":["49","50","51"],"siedziba":"Zespół Szkół Przemysłu Spożywczego","ulica":"MACIEJA MIECHOWITY","nrBud":"6"},"geometry":{"type":"Point","coordinates":[19.96598,50.08283]}},{"type":"Feature","properties":{"obwody":["29"],"siedziba":"Młodzieżowy Dom Kultury","ulica":"GRUNWALDZKA","nrBud":"5"},"geometry":{"type":"Point","coordinates":[19.9656,50.06708]}},{"type":"Feature","properties":{"obwody":["368"],"siedziba":"Szkoła Podstawowa Nr 78","ulica":"JASKROWA","nrBud":"5"},"geometry":{"type":"Point","coordinates":[20.12358,50.09987]}},{"type":"Feature","properties":{"obwody":["26"],"siedziba":"Szkoła Podstawowa z Oddziałami Integracyjnymi Nr 3","ulica":"TOPOLOWA","nrBud":"22"},"geometry":{"type":"Point","coordinates":[19.95305,50.06693]}},{"type":"Feature","properties":{"obwody":["37"],"siedziba":"Bursa Szkolnictwa Ponadpodstawowego Nr 1","ulica":"RZEŹNICZA","nrBud":"4"},"geometry":{"type":"Point","coordinates":[19.9569,50.05669]}},{"type":"Feature","properties":{"obwody":["15"],"siedziba":"Branżowa Szkoła I Stopnia Nr 30","ulica":"JÓZEFA SZUJSKIEGO","nrBud":"2"},"geometry":{"type":"Point","coordinates":[19.92929,50.06365]}},{"type":"Feature","properties":{"obwody":["14"],"siedziba":"Zespół Szkół Energetycznych","ulica":"LORETAŃSKA","nrBud":"16"},"geometry":{"type":"Point","coordinates":[19.93071,50.06164]}},{"type":"Feature","properties":{"obwody":["416"],"siedziba":"Szpital Specjalistyczny im. J. Dietla w Krakowie","ulica":"SKARBOWA","nrBud":"1"},"geometry":{"type":"Point","coordinates":[19.92681,50.06349]}},{"type":"Feature","properties":{"obwody":["13"],"siedziba":"Zespół Szkół Mechanicznych Nr 1","ulica":"ALEJA ADAMA MICKIEWICZA","nrBud":"5"},"geometry":{"type":"Point","coordinates":[19.9245,50.06149]}},{"type":"Feature","properties":{"obwody":["11"],"siedziba":"I Liceum Ogólnokształcące","ulica":"PL. NA GROBLACH","nrBud":"9"},"geometry":{"type":"Point","coordinates":[19.93341,50.05695]}},{"type":"Feature","properties":{"obwody":["1"],"siedziba":"VI Liceum Ogólnokształcące","ulica":"WĄSKA","nrBud":"7"},"geometry":{"type":"Point","coordinates":[19.94761,50.05043]}},{"type":"Feature","properties":{"obwody":["127","128"],"siedziba":"Zespół Szkół Ogólnokształcących Nr 7","ulica":"ZŁOTY RÓG","nrBud":"30"},"geometry":{"type":"Point","coordinates":[19.89505,50.08158]}},{"type":"Feature","properties":{"obwody":["125","126"],"siedziba":"Szkoła Podstawowa Nr 93","ulica":"FELIKSA SZLACHTOWSKIEGO","nrBud":"31"},"geometry":{"type":"Point","coordinates":[19.90032,50.07329]}},{"type":"Feature","properties":{"obwody":["446"],"siedziba":"Dom Pomocy Społecznej","ulica":"ŁANOWA","nrBud":"39"},"geometry":{"type":"Point","coordinates":[19.99231,50.03889]}}]}